{
"type": "FeatureCollection",
"name": "kommuner",
"crs": { "type": "name", "properties": { "name": "urn:ogc:def:crs:OGC:1.3:CRS84" } },
"xy_coordinate_resolution": 1e-06,
"features": [
{ "type": "Feature", "properties": { "fid": 1, "KnKod": "0114", "KnNamn": "Upplands Väsby" }, "geometry": { "type": "MultiPolygon", "coordinates": [ [ [ [ 17.927942, 59.499208 ], [ 17.905518, 59.491318 ], [ 17.88079, 59.492897 ], [ 17.875971, 59.484264 ], [ 17.838068, 59.476274 ], [ 17.843315, 59.497787 ], [ 17.807046, 59.506203 ], [ 17.81366, 59.515252 ], [ 17.829586, 59.523626 ], [ 17.83223, 59.530293 ], [ 17.812863, 59.546187 ], [ 17.806157, 59.557765 ], [ 17.81007, 59.57481 ], [ 17.854654, 59.570116 ], [ 17.863788, 59.563185 ], [ 17.883704, 59.559036 ], [ 17.928794, 59.56371 ], [ 17.964645, 59.561526 ], [ 17.980874, 59.564059 ], [ 17.985994, 59.558667 ], [ 17.976722, 59.551494 ], [ 18.016582, 59.525676 ], [ 18.02227, 59.517812 ], [ 18.02158, 59.511332 ], [ 17.991201, 59.496703 ], [ 18.00259, 59.480637 ], [ 17.997127, 59.466316 ], [ 17.97961, 59.46774 ], [ 17.963845, 59.473155 ], [ 17.966196, 59.483182 ], [ 17.952046, 59.491919 ], [ 17.938523, 59.493918 ], [ 17.927942, 59.499208 ] ] ] ] } },
{ "type": "Feature", "properties": { "fid": 2, "KnKod": "0115", "KnNamn": "Vallentuna" }, "geometry": { "type": "MultiPolygon", "coordinates": [ [ [ [ 18.231517, 59.507924 ], [ 18.215459, 59.499258 ], [ 18.201907, 59.500944 ], [ 18.178469, 59.502215 ], [ 18.161242, 59.500623 ], [ 18.143419, 59.493453 ], [ 18.118245, 59.496657 ], [ 18.104965, 59.507065 ], [ 18.085777, 59.505183 ], [ 18.060635, 59.508815 ], [ 18.02158, 59.511332 ], [ 18.02227, 59.517812 ], [ 18.016582, 59.525676 ], [ 17.976722, 59.551494 ], [ 17.985994, 59.558667 ], [ 17.980874, 59.564059 ], [ 18.004778, 59.568644 ], [ 18.018887, 59.571666 ], [ 18.011029, 59.577904 ], [ 18.016612, 59.587185 ], [ 18.01973, 59.603915 ], [ 18.014972, 59.632936 ], [ 18.043708, 59.631236 ], [ 18.057151, 59.633934 ], [ 18.093478, 59.635407 ], [ 18.101389, 59.653362 ], [ 18.11529, 59.66613 ], [ 18.130309, 59.670795 ], [ 18.125073, 59.676976 ], [ 18.146419, 59.679587 ], [ 18.164097, 59.678705 ], [ 18.171204, 59.671465 ], [ 18.173052, 59.664688 ], [ 18.185567, 59.664713 ], [ 18.196538, 59.668474 ], [ 18.243451, 59.664253 ], [ 18.291139, 59.683869 ], [ 18.2977, 59.67798 ], [ 18.326651, 59.683273 ], [ 18.350809, 59.664828 ], [ 18.385258, 59.655517 ], [ 18.387692, 59.648392 ], [ 18.378197, 59.623765 ], [ 18.388047, 59.61813 ], [ 18.39331, 59.601501 ], [ 18.418195, 59.595458 ], [ 18.429815, 59.582715 ], [ 18.436031, 59.567072 ], [ 18.412695, 59.560318 ], [ 18.384407, 59.559728 ], [ 18.384178, 59.552333 ], [ 18.378985, 59.547101 ], [ 18.363859, 59.546831 ], [ 18.355522, 59.548395 ], [ 18.329446, 59.538662 ], [ 18.328137, 59.532985 ], [ 18.270061, 59.524078 ], [ 18.264026, 59.517168 ], [ 18.251259, 59.50876 ], [ 18.231517, 59.507924 ] ] ] ] } },
{ "type": "Feature", "properties": { "fid": 3, "KnKod": "0117", "KnNamn": "Österåker" }, "geometry": { "type": "MultiPolygon", "coordinates": [ [ [ [ 18.577399, 59.549392 ], [ 18.545131, 59.537847 ], [ 18.536383, 59.530701 ], [ 18.517928, 59.529873 ], [ 18.476562, 59.507813 ], [ 18.467051, 59.505052 ], [ 18.453853, 59.493303 ], [ 18.43666, 59.486384 ], [ 18.416735, 59.484224 ], [ 18.4104, 59.480363 ], [ 18.410975, 59.474307 ], [ 18.390046, 59.457713 ], [ 18.376107, 59.456066 ], [ 18.363911, 59.458083 ], [ 18.347436, 59.457174 ], [ 18.341637, 59.463376 ], [ 18.32857, 59.463718 ], [ 18.316537, 59.461346 ], [ 18.309006, 59.464238 ], [ 18.299813, 59.469515 ], [ 18.285374, 59.469224 ], [ 18.277458, 59.463042 ], [ 18.28951, 59.459698 ], [ 18.302364, 59.457684 ], [ 18.307535, 59.451496 ], [ 18.300771, 59.443947 ], [ 18.291098, 59.439488 ], [ 18.269226, 59.436697 ], [ 18.252711, 59.441156 ], [ 18.235613, 59.440253 ], [ 18.228806, 59.435055 ], [ 18.23447, 59.430199 ], [ 18.218907, 59.419316 ], [ 18.20304, 59.423945 ], [ 18.203153, 59.433516 ], [ 18.202871, 59.439753 ], [ 18.197304, 59.442576 ], [ 18.173033, 59.436131 ], [ 18.161294, 59.436424 ], [ 18.157274, 59.441237 ], [ 18.153817, 59.451402 ], [ 18.142179, 59.44889 ], [ 18.133718, 59.458963 ], [ 18.146665, 59.4694 ], [ 18.143419, 59.493453 ], [ 18.161242, 59.500623 ], [ 18.178469, 59.502215 ], [ 18.201907, 59.500944 ], [ 18.215459, 59.499258 ], [ 18.231517, 59.507924 ], [ 18.251259, 59.50876 ], [ 18.264026, 59.517168 ], [ 18.270061, 59.524078 ], [ 18.328137, 59.532985 ], [ 18.329446, 59.538662 ], [ 18.355522, 59.548395 ], [ 18.363859, 59.546831 ], [ 18.378985, 59.547101 ], [ 18.384178, 59.552333 ], [ 18.384407, 59.559728 ], [ 18.412695, 59.560318 ], [ 18.436031, 59.567072 ], [ 18.447513, 59.566095 ], [ 18.447915, 59.558355 ], [ 18.461432, 59.556303 ], [ 18.477085, 59.560916 ], [ 18.487864, 59.574068 ], [ 18.488361, 59.57809 ], [ 18.484962, 59.582552 ], [ 18.492726, 59.592424 ], [ 18.522591, 59.589581 ], [ 18.551947, 59.593137 ], [ 18.56063, 59.58885 ], [ 18.574106, 59.591835 ], [ 18.585258, 59.591527 ], [ 18.593547, 59.584238 ], [ 18.607741, 59.587528 ], [ 18.61276, 59.585705 ], [ 18.619291, 59.58014 ], [ 18.627714, 59.579222 ], [ 18.647064, 59.586735 ], [ 18.667257, 59.577367 ], [ 18.629873, 59.565039 ], [ 18.608199, 59.559603 ], [ 18.577399, 59.549392 ] ] ], [ [ [ 18.578945, 59.456213 ], [ 18.573764, 59.45132 ], [ 18.572268, 59.439254 ], [ 18.560685, 59.430167 ], [ 18.544842, 59.428928 ], [ 18.543641, 59.435016 ], [ 18.546367, 59.446706 ], [ 18.539421, 59.453965 ], [ 18.526459, 59.460379 ], [ 18.523326, 59.466847 ], [ 18.525253, 59.477217 ], [ 18.522476, 59.481334 ], [ 18.513742, 59.484928 ], [ 18.520027, 59.4935 ], [ 18.532174, 59.496517 ], [ 18.544465, 59.495173 ], [ 18.546918, 59.488386 ], [ 18.559586, 59.485003 ], [ 18.570374, 59.492769 ], [ 18.575886, 59.50034 ], [ 18.568965, 59.502553 ], [ 18.552688, 59.503344 ], [ 18.552477, 59.507049 ], [ 18.562293, 59.512151 ], [ 18.561728, 59.518225 ], [ 18.56883, 59.522727 ], [ 18.584781, 59.529674 ], [ 18.590557, 59.53926 ], [ 18.634824, 59.552115 ], [ 18.644621, 59.556888 ], [ 18.661055, 59.562468 ], [ 18.672496, 59.559442 ], [ 18.661895, 59.553369 ], [ 18.662775, 59.549972 ], [ 18.676581, 59.550254 ], [ 18.676394, 59.538483 ], [ 18.687826, 59.535466 ], [ 18.688566, 59.531075 ], [ 18.672643, 59.529521 ], [ 18.662639, 59.523084 ], [ 18.646546, 59.509765 ], [ 18.636737, 59.499621 ], [ 18.620531, 59.495714 ], [ 18.608868, 59.496719 ], [ 18.599304, 59.493627 ], [ 18.593117, 59.486071 ], [ 18.60001, 59.473098 ], [ 18.598403, 59.460038 ], [ 18.591987, 59.455837 ], [ 18.578945, 59.456213 ] ] ] ] } },
{ "type": "Feature", "properties": { "fid": 4, "KnKod": "0120", "KnNamn": "Värmdö" }, "geometry": { "type": "MultiPolygon", "coordinates": [ [ [ [ 18.476544, 59.290631 ], [ 18.499042, 59.282956 ], [ 18.507967, 59.275981 ], [ 18.538991, 59.268723 ], [ 18.547296, 59.267489 ], [ 18.551886, 59.273078 ], [ 18.539508, 59.278467 ], [ 18.540858, 59.284141 ], [ 18.610399, 59.288555 ], [ 18.680534, 59.297292 ], [ 18.685102, 59.292117 ], [ 18.635871, 59.262945 ], [ 18.639101, 59.257476 ], [ 18.620036, 59.255995 ], [ 18.603463, 59.253451 ], [ 18.592306, 59.247385 ], [ 18.566427, 59.243068 ], [ 18.565078, 59.232013 ], [ 18.548432, 59.228782 ], [ 18.535334, 59.22277 ], [ 18.524418, 59.218364 ], [ 18.482264, 59.224582 ], [ 18.471088, 59.239684 ], [ 18.449291, 59.242302 ], [ 18.424288, 59.250711 ], [ 18.414227, 59.264771 ], [ 18.397919, 59.269928 ], [ 18.378248, 59.285244 ], [ 18.346479, 59.286425 ], [ 18.333323, 59.290812 ], [ 18.339759, 59.29568 ], [ 18.349942, 59.299442 ], [ 18.343115, 59.313415 ], [ 18.346944, 59.318351 ], [ 18.363163, 59.323297 ], [ 18.371112, 59.330146 ], [ 18.360967, 59.332438 ], [ 18.343246, 59.331445 ], [ 18.357477, 59.347315 ], [ 18.359475, 59.3587 ], [ 18.39485, 59.360104 ], [ 18.415921, 59.356164 ], [ 18.447274, 59.340184 ], [ 18.447096, 59.333137 ], [ 18.433586, 59.329126 ], [ 18.439632, 59.325268 ], [ 18.437155, 59.320962 ], [ 18.418585, 59.30702 ], [ 18.412317, 59.298102 ], [ 18.421404, 59.292486 ], [ 18.451674, 59.295018 ], [ 18.476544, 59.290631 ] ] ], [ [ [ 18.46264, 59.397593 ], [ 18.456186, 59.403814 ], [ 18.444707, 59.406148 ], [ 18.438198, 59.411704 ], [ 18.436136, 59.416469 ], [ 18.444899, 59.418583 ], [ 18.454518, 59.416969 ], [ 18.465331, 59.420036 ], [ 18.478968, 59.419327 ], [ 18.499576, 59.416748 ], [ 18.505111, 59.413894 ], [ 18.519179, 59.389973 ], [ 18.584288, 59.367308 ], [ 18.602512, 59.372164 ], [ 18.615478, 59.371463 ], [ 18.622616, 59.365867 ], [ 18.621826, 59.359507 ], [ 18.612154, 59.35508 ], [ 18.601629, 59.354372 ], [ 18.590059, 59.355707 ], [ 18.569111, 59.35529 ], [ 18.549336, 59.353498 ], [ 18.554356, 59.346629 ], [ 18.57612, 59.348701 ], [ 18.605411, 59.342831 ], [ 18.626796, 59.336505 ], [ 18.634642, 59.326194 ], [ 18.633594, 59.31781 ], [ 18.625025, 59.306634 ], [ 18.611737, 59.299268 ], [ 18.587275, 59.296272 ], [ 18.537948, 59.292295 ], [ 18.518105, 59.289817 ], [ 18.483703, 59.301531 ], [ 18.469464, 59.302254 ], [ 18.456276, 59.306322 ], [ 18.457279, 59.314699 ], [ 18.468774, 59.339935 ], [ 18.469158, 59.348666 ], [ 18.464507, 59.353503 ], [ 18.458572, 59.358366 ], [ 18.455883, 59.363145 ], [ 18.460067, 59.370765 ], [ 18.467036, 59.379991 ], [ 18.467439, 59.388721 ], [ 18.46264, 59.397593 ] ] ], [ [ [ 18.720898, 59.363689 ], [ 18.730047, 59.353667 ], [ 18.731903, 59.342524 ], [ 18.731439, 59.328746 ], [ 18.724364, 59.319204 ], [ 18.708577, 59.312937 ], [ 18.682842, 59.305289 ], [ 18.672166, 59.303243 ], [ 18.664626, 59.305484 ], [ 18.670793, 59.323465 ], [ 18.671532, 59.334541 ], [ 18.664785, 59.34818 ], [ 18.637159, 59.372513 ], [ 18.668525, 59.377999 ], [ 18.684374, 59.369135 ], [ 18.695421, 59.373849 ], [ 18.720898, 59.363689 ] ] ], [ [ [ 18.851259, 59.407204 ], [ 18.854094, 59.413848 ], [ 18.851344, 59.42267 ], [ 18.850927, 59.429408 ], [ 18.858366, 59.43625 ], [ 18.873712, 59.443507 ], [ 18.891289, 59.447675 ], [ 18.905054, 59.447933 ], [ 18.919312, 59.446821 ], [ 18.922446, 59.441006 ], [ 18.922818, 59.433928 ], [ 18.913019, 59.429185 ], [ 18.903213, 59.429148 ], [ 18.901078, 59.418124 ], [ 18.884912, 59.409541 ], [ 18.869752, 59.40361 ], [ 18.864443, 59.398066 ], [ 18.859909, 59.393484 ], [ 18.845458, 59.387875 ], [ 18.836056, 59.390851 ], [ 18.840328, 59.39845 ], [ 18.851259, 59.407204 ] ] ], [ [ [ 18.736705, 59.288235 ], [ 18.766047, 59.2988 ], [ 18.779892, 59.300074 ], [ 18.800134, 59.290385 ], [ 18.777127, 59.278633 ], [ 18.771514, 59.265351 ], [ 18.756485, 59.259746 ], [ 18.742006, 59.26354 ], [ 18.724756, 59.261027 ], [ 18.714396, 59.261331 ], [ 18.714286, 59.270746 ], [ 18.724339, 59.283231 ], [ 18.736705, 59.288235 ] ] ], [ [ [ 18.935095, 59.393867 ], [ 18.939312, 59.376582 ], [ 18.931447, 59.371453 ], [ 18.914575, 59.372305 ], [ 18.910699, 59.377463 ], [ 18.912606, 59.396587 ], [ 18.906188, 59.402489 ], [ 18.92048, 59.406757 ], [ 18.924074, 59.414046 ], [ 18.934423, 59.418101 ], [ 18.951772, 59.415879 ], [ 18.955291, 59.408033 ], [ 18.935095, 59.393867 ] ] ], [ [ [ 18.676127, 59.205288 ], [ 18.683554, 59.212803 ], [ 18.69407, 59.218885 ], [ 18.704777, 59.216221 ], [ 18.698785, 59.204624 ], [ 18.724864, 59.210589 ], [ 18.738363, 59.209504 ], [ 18.732033, 59.20062 ], [ 18.720482, 59.196586 ], [ 18.702731, 59.194764 ], [ 18.682677, 59.190305 ], [ 18.666568, 59.18607 ], [ 18.650181, 59.179487 ], [ 18.652955, 59.186118 ], [ 18.676127, 59.205288 ] ] ], [ [ [ 18.90455, 59.355799 ], [ 18.906495, 59.350696 ], [ 18.894128, 59.346031 ], [ 18.893239, 59.339333 ], [ 18.881288, 59.327929 ], [ 18.883187, 59.322494 ], [ 18.893798, 59.314105 ], [ 18.884782, 59.310006 ], [ 18.851875, 59.312361 ], [ 18.859145, 59.318191 ], [ 18.863378, 59.330497 ], [ 18.86842, 59.344131 ], [ 18.874497, 59.350671 ], [ 18.887831, 59.357669 ], [ 18.895764, 59.358424 ], [ 18.90455, 59.355799 ] ] ] ] } },
{ "type": "Feature", "properties": { "fid": 5, "KnKod": "0123", "KnNamn": "Järfälla" }, "geometry": { "type": "MultiPolygon", "coordinates": [ [ [ [ 17.803565, 59.460697 ], [ 17.806812, 59.467005 ], [ 17.798455, 59.472798 ], [ 17.803036, 59.487938 ], [ 17.807046, 59.506203 ], [ 17.843315, 59.497787 ], [ 17.838068, 59.476274 ], [ 17.827304, 59.468907 ], [ 17.845254, 59.465477 ], [ 17.847402, 59.460721 ], [ 17.852121, 59.455915 ], [ 17.871362, 59.452111 ], [ 17.876573, 59.445608 ], [ 17.878253, 59.43011 ], [ 17.887899, 59.428763 ], [ 17.890388, 59.42109 ], [ 17.887222, 59.409396 ], [ 17.875736, 59.399252 ], [ 17.855095, 59.388964 ], [ 17.84362, 59.385193 ], [ 17.834648, 59.386734 ], [ 17.830967, 59.395563 ], [ 17.820917, 59.399481 ], [ 17.810188, 59.396701 ], [ 17.79701, 59.389037 ], [ 17.786749, 59.397229 ], [ 17.776844, 59.40282 ], [ 17.77374, 59.410948 ], [ 17.775696, 59.424019 ], [ 17.795813, 59.455159 ], [ 17.800079, 59.458425 ], [ 17.803565, 59.460697 ] ] ] ] } },
{ "type": "Feature", "properties": { "fid": 6, "KnKod": "0125", "KnNamn": "Ekerö" }, "geometry": { "type": "MultiPolygon", "coordinates": [ [ [ [ 17.786787, 59.325979 ], [ 17.789898, 59.317842 ], [ 17.781327, 59.310295 ], [ 17.760842, 59.307398 ], [ 17.733287, 59.311696 ], [ 17.720052, 59.323079 ], [ 17.71333, 59.327595 ], [ 17.697061, 59.327607 ], [ 17.679044, 59.343454 ], [ 17.654345, 59.364476 ], [ 17.636914, 59.387024 ], [ 17.630641, 59.403292 ], [ 17.604535, 59.431047 ], [ 17.601636, 59.44187 ], [ 17.598203, 59.446972 ], [ 17.59979, 59.449967 ], [ 17.613884, 59.453706 ], [ 17.628688, 59.444324 ], [ 17.643352, 59.440662 ], [ 17.663027, 59.427805 ], [ 17.679469, 59.422075 ], [ 17.690939, 59.42587 ], [ 17.709457, 59.421436 ], [ 17.730563, 59.410217 ], [ 17.725081, 59.407658 ], [ 17.714016, 59.407892 ], [ 17.703944, 59.405085 ], [ 17.702059, 59.399078 ], [ 17.713178, 59.386068 ], [ 17.723365, 59.383494 ], [ 17.731444, 59.386006 ], [ 17.730805, 59.392741 ], [ 17.735021, 59.395678 ], [ 17.762162, 59.379956 ], [ 17.764949, 59.375191 ], [ 17.775776, 59.365879 ], [ 17.78099, 59.352654 ], [ 17.778313, 59.338939 ], [ 17.776251, 59.331248 ], [ 17.786787, 59.325979 ] ] ], [ [ [ 17.613143, 59.363329 ], [ 17.599386, 59.362611 ], [ 17.588142, 59.367874 ], [ 17.572495, 59.389043 ], [ 17.56395, 59.388206 ], [ 17.554035, 59.387064 ], [ 17.543955, 59.39097 ], [ 17.540676, 59.397756 ], [ 17.535667, 59.406927 ], [ 17.532678, 59.417076 ], [ 17.548384, 59.424481 ], [ 17.562992, 59.426871 ], [ 17.580875, 59.429521 ], [ 17.593268, 59.429262 ], [ 17.636472, 59.361827 ], [ 17.653686, 59.323829 ], [ 17.681458, 59.321224 ], [ 17.700134, 59.312415 ], [ 17.735541, 59.301561 ], [ 17.759659, 59.295321 ], [ 17.773151, 59.293681 ], [ 17.797727, 59.298516 ], [ 17.809976, 59.297233 ], [ 17.808953, 59.293558 ], [ 17.839365, 59.285473 ], [ 17.843203, 59.278329 ], [ 17.839658, 59.275385 ], [ 17.813092, 59.269942 ], [ 17.784187, 59.273608 ], [ 17.776131, 59.277815 ], [ 17.763943, 59.279436 ], [ 17.72684, 59.279242 ], [ 17.685546, 59.296267 ], [ 17.648092, 59.306139 ], [ 17.632331, 59.311515 ], [ 17.626337, 59.317022 ], [ 17.624468, 59.324787 ], [ 17.62839, 59.331754 ], [ 17.624526, 59.345949 ], [ 17.611744, 59.348578 ], [ 17.61767, 59.356182 ], [ 17.613143, 59.363329 ] ] ], [ [ [ 17.487971, 59.377984 ], [ 17.46987, 59.387077 ], [ 17.467641, 59.391154 ], [ 17.470067, 59.396484 ], [ 17.470745, 59.403855 ], [ 17.469232, 59.408929 ], [ 17.471213, 59.416284 ], [ 17.491911, 59.421253 ], [ 17.50545, 59.4193 ], [ 17.509339, 59.411833 ], [ 17.521721, 59.404525 ], [ 17.534788, 59.383424 ], [ 17.542811, 59.378559 ], [ 17.544684, 59.370453 ], [ 17.538243, 59.364532 ], [ 17.53509, 59.358549 ], [ 17.539884, 59.347038 ], [ 17.530851, 59.340837 ], [ 17.519207, 59.341736 ], [ 17.50305, 59.350467 ], [ 17.492939, 59.361085 ], [ 17.496376, 59.370082 ], [ 17.487971, 59.377984 ] ] ], [ [ [ 17.890597, 59.334383 ], [ 17.891204, 59.327648 ], [ 17.885054, 59.324765 ], [ 17.882293, 59.320112 ], [ 17.87707, 59.310489 ], [ 17.860681, 59.303143 ], [ 17.846615, 59.305473 ], [ 17.833975, 59.315844 ], [ 17.808331, 59.332897 ], [ 17.806351, 59.338979 ], [ 17.81451, 59.348874 ], [ 17.820829, 59.353446 ], [ 17.841846, 59.354988 ], [ 17.856445, 59.350952 ], [ 17.870106, 59.337878 ], [ 17.879444, 59.333627 ], [ 17.890597, 59.334383 ] ] ] ] } },
{ "type": "Feature", "properties": { "fid": 7, "KnKod": "0126", "KnNamn": "Huddinge" }, "geometry": { "type": "MultiPolygon", "coordinates": [ [ [ [ 18.06037, 59.246663 ], [ 18.083479, 59.238035 ], [ 18.097699, 59.237346 ], [ 18.110825, 59.238362 ], [ 18.121087, 59.243155 ], [ 18.147021, 59.242503 ], [ 18.167903, 59.23548 ], [ 18.178744, 59.21391 ], [ 18.099703, 59.189895 ], [ 18.095805, 59.183947 ], [ 18.105716, 59.173616 ], [ 18.089945, 59.165605 ], [ 18.09267, 59.160834 ], [ 18.079717, 59.155098 ], [ 18.054898, 59.153357 ], [ 18.034144, 59.147141 ], [ 18.014326, 59.149634 ], [ 17.997679, 59.157764 ], [ 17.979466, 59.161446 ], [ 17.967281, 59.170926 ], [ 17.962419, 59.19289 ], [ 17.943764, 59.194338 ], [ 17.928443, 59.209486 ], [ 17.925962, 59.229372 ], [ 17.918639, 59.233918 ], [ 17.908833, 59.233466 ], [ 17.882471, 59.244602 ], [ 17.882584, 59.27328 ], [ 17.899251, 59.273004 ], [ 17.911342, 59.27677 ], [ 17.925001, 59.282834 ], [ 17.943326, 59.283747 ], [ 17.956453, 59.278736 ], [ 17.972028, 59.265924 ], [ 18.022026, 59.259022 ], [ 18.036107, 59.250942 ], [ 18.06037, 59.246663 ] ] ] ] } },
{ "type": "Feature", "properties": { "fid": 8, "KnKod": "0127", "KnNamn": "Botkyrka" }, "geometry": { "type": "MultiPolygon", "coordinates": [ [ [ [ 17.858109, 59.09213 ], [ 17.807843, 59.100673 ], [ 17.77766, 59.096645 ], [ 17.772537, 59.1102 ], [ 17.774251, 59.120923 ], [ 17.738051, 59.108275 ], [ 17.732217, 59.101681 ], [ 17.737545, 59.083419 ], [ 17.735734, 59.07136 ], [ 17.705476, 59.06597 ], [ 17.691427, 59.067961 ], [ 17.689014, 59.083135 ], [ 17.689697, 59.096899 ], [ 17.701138, 59.11479 ], [ 17.691719, 59.142664 ], [ 17.727923, 59.157227 ], [ 17.73301, 59.162827 ], [ 17.731868, 59.177983 ], [ 17.785481, 59.191204 ], [ 17.760812, 59.218317 ], [ 17.764425, 59.237065 ], [ 17.736524, 59.253473 ], [ 17.736676, 59.256156 ], [ 17.759242, 59.264744 ], [ 17.780914, 59.260404 ], [ 17.804492, 59.262065 ], [ 17.840966, 59.262587 ], [ 17.85852, 59.256143 ], [ 17.86721, 59.245859 ], [ 17.872178, 59.236998 ], [ 17.882471, 59.244602 ], [ 17.908833, 59.233466 ], [ 17.918639, 59.233918 ], [ 17.925962, 59.229372 ], [ 17.928443, 59.209486 ], [ 17.943764, 59.194338 ], [ 17.962419, 59.19289 ], [ 17.967281, 59.170926 ], [ 17.979466, 59.161446 ], [ 17.91794, 59.139149 ], [ 17.921773, 59.128194 ], [ 17.901522, 59.12441 ], [ 17.893259, 59.113175 ], [ 17.899136, 59.107324 ], [ 17.877035, 59.093724 ], [ 17.858109, 59.09213 ] ] ] ] } },
{ "type": "Feature", "properties": { "fid": 9, "KnKod": "0128", "KnNamn": "Salem" }, "geometry": { "type": "MultiPolygon", "coordinates": [ [ [ [ 17.665041, 59.238566 ], [ 17.666549, 59.247604 ], [ 17.659549, 59.249105 ], [ 17.660949, 59.256807 ], [ 17.654647, 59.258952 ], [ 17.645272, 59.256131 ], [ 17.631451, 59.254404 ], [ 17.614284, 59.256331 ], [ 17.610738, 59.262226 ], [ 17.603365, 59.266754 ], [ 17.598058, 59.272574 ], [ 17.604073, 59.281191 ], [ 17.62397, 59.285144 ], [ 17.634675, 59.281556 ], [ 17.654884, 59.2818 ], [ 17.65616, 59.288498 ], [ 17.683831, 59.285212 ], [ 17.708395, 59.276954 ], [ 17.716433, 59.266026 ], [ 17.736676, 59.256156 ], [ 17.736524, 59.253473 ], [ 17.764425, 59.237065 ], [ 17.760812, 59.218317 ], [ 17.785481, 59.191204 ], [ 17.731868, 59.177983 ], [ 17.709785, 59.184171 ], [ 17.712022, 59.193872 ], [ 17.710107, 59.200975 ], [ 17.677688, 59.228221 ], [ 17.665011, 59.224793 ], [ 17.650246, 59.226458 ], [ 17.645202, 59.23496 ], [ 17.646871, 59.23895 ], [ 17.665041, 59.238566 ] ] ] ] } },
{ "type": "Feature", "properties": { "fid": 10, "KnKod": "0136", "KnNamn": "Haninge" }, "geometry": { "type": "MultiPolygon", "coordinates": [ [ [ [ 18.328519, 59.170256 ], [ 18.348733, 59.165678 ], [ 18.365569, 59.170951 ], [ 18.378889, 59.173841 ], [ 18.410554, 59.167381 ], [ 18.425065, 59.169344 ], [ 18.440981, 59.172265 ], [ 18.448997, 59.16868 ], [ 18.426675, 59.144416 ], [ 18.412451, 59.139421 ], [ 18.400398, 59.136052 ], [ 18.390073, 59.136329 ], [ 18.386084, 59.141141 ], [ 18.376446, 59.141746 ], [ 18.351647, 59.129301 ], [ 18.343234, 59.129188 ], [ 18.32846, 59.130248 ], [ 18.315153, 59.127236 ], [ 18.28455, 59.120307 ], [ 18.269383, 59.106594 ], [ 18.315509, 59.107732 ], [ 18.317947, 59.100949 ], [ 18.300896, 59.09333 ], [ 18.252093, 59.085197 ], [ 18.228107, 59.079091 ], [ 18.213581, 59.070722 ], [ 18.201759, 59.06901 ], [ 18.199016, 59.073452 ], [ 18.199094, 59.079836 ], [ 18.215389, 59.086817 ], [ 18.225472, 59.090249 ], [ 18.228444, 59.093534 ], [ 18.220569, 59.09845 ], [ 18.227743, 59.104648 ], [ 18.238455, 59.107734 ], [ 18.248234, 59.108485 ], [ 18.257871, 59.113611 ], [ 18.257084, 59.117999 ], [ 18.247852, 59.122277 ], [ 18.225009, 59.120855 ], [ 18.211691, 59.117501 ], [ 18.203015, 59.109318 ], [ 18.210943, 59.105085 ], [ 18.206449, 59.099484 ], [ 18.188866, 59.092875 ], [ 18.142587, 59.083954 ], [ 18.136938, 59.079395 ], [ 18.108671, 59.0754 ], [ 18.100918, 59.06953 ], [ 18.094637, 59.059269 ], [ 18.082746, 59.056883 ], [ 18.059364, 59.055773 ], [ 18.042245, 59.052827 ], [ 18.03548, 59.043919 ], [ 18.033907, 59.035217 ], [ 18.026216, 59.029692 ], [ 18.014891, 59.032651 ], [ 18.012597, 59.041445 ], [ 18.000029, 59.042754 ], [ 17.99522, 59.04825 ], [ 17.962247, 59.054415 ], [ 17.955451, 59.06366 ], [ 17.954836, 59.07644 ], [ 17.965318, 59.083917 ], [ 17.978129, 59.095045 ], [ 17.980964, 59.103717 ], [ 17.972051, 59.104943 ], [ 17.970916, 59.119079 ], [ 17.94978, 59.121261 ], [ 17.93698, 59.116515 ], [ 17.926591, 59.122477 ], [ 17.921773, 59.128194 ], [ 17.91794, 59.139149 ], [ 17.979466, 59.161446 ], [ 17.997679, 59.157764 ], [ 18.014326, 59.149634 ], [ 18.034144, 59.147141 ], [ 18.054898, 59.153357 ], [ 18.079717, 59.155098 ], [ 18.09267, 59.160834 ], [ 18.089945, 59.165605 ], [ 18.105716, 59.173616 ], [ 18.095805, 59.183947 ], [ 18.099703, 59.189895 ], [ 18.178744, 59.21391 ], [ 18.208219, 59.220113 ], [ 18.233111, 59.221834 ], [ 18.259244, 59.211744 ], [ 18.289504, 59.198174 ], [ 18.298001, 59.187199 ], [ 18.313447, 59.1804 ], [ 18.328519, 59.170256 ] ] ], [ [ [ 18.405782, 59.010512 ], [ 18.394208, 59.010824 ], [ 18.388094, 59.019398 ], [ 18.363724, 59.015345 ], [ 18.345103, 59.021899 ], [ 18.341248, 59.033426 ], [ 18.350337, 59.039238 ], [ 18.359902, 59.043684 ], [ 18.364838, 59.047251 ], [ 18.361991, 59.050684 ], [ 18.348923, 59.049361 ], [ 18.345582, 59.054159 ], [ 18.374883, 59.072532 ], [ 18.374009, 59.07625 ], [ 18.365812, 59.078154 ], [ 18.37071, 59.08138 ], [ 18.411201, 59.09004 ], [ 18.465306, 59.120495 ], [ 18.466769, 59.121803 ], [ 18.484975, 59.100789 ], [ 18.47806, 59.091564 ], [ 18.454164, 59.081132 ], [ 18.452592, 59.067728 ], [ 18.425819, 59.054674 ], [ 18.417043, 59.01827 ], [ 18.405782, 59.010512 ] ] ], [ [ [ 18.22081, 58.914897 ], [ 18.193986, 58.91694 ], [ 18.193547, 58.924671 ], [ 18.188207, 58.928847 ], [ 18.171913, 58.921198 ], [ 18.156633, 58.916878 ], [ 18.147493, 58.91576 ], [ 18.147125, 58.924181 ], [ 18.17146, 58.93465 ], [ 18.199702, 58.945357 ], [ 18.211149, 58.94977 ], [ 18.2718, 58.967696 ], [ 18.28952, 58.964546 ], [ 18.322253, 58.974431 ], [ 18.333407, 58.981875 ], [ 18.345525, 58.986254 ], [ 18.352866, 58.982697 ], [ 18.351622, 58.971962 ], [ 18.342012, 58.966852 ], [ 18.290115, 58.952751 ], [ 18.282172, 58.945243 ], [ 18.29698, 58.939471 ], [ 18.307226, 58.93314 ], [ 18.274744, 58.924926 ], [ 18.255012, 58.927124 ], [ 18.242449, 58.924092 ], [ 18.233368, 58.917931 ], [ 18.22081, 58.914897 ] ] ], [ [ [ 18.073556, 58.971048 ], [ 18.058445, 58.968402 ], [ 18.052143, 58.969904 ], [ 18.058115, 58.977487 ], [ 18.056075, 58.988622 ], [ 18.059105, 58.992925 ], [ 18.081574, 59.003803 ], [ 18.08348, 59.009463 ], [ 18.081148, 59.017927 ], [ 18.081328, 59.019594 ], [ 18.090493, 59.02677 ], [ 18.10171, 59.028844 ], [ 18.133877, 59.027705 ], [ 18.161839, 59.035399 ], [ 18.193673, 59.030892 ], [ 18.205939, 59.030917 ], [ 18.201415, 59.024984 ], [ 18.187436, 59.021308 ], [ 18.172542, 59.021015 ], [ 18.163298, 59.013182 ], [ 18.164346, 59.00508 ], [ 18.157451, 59.001236 ], [ 18.146165, 59.004206 ], [ 18.136575, 58.999072 ], [ 18.138914, 58.990938 ], [ 18.150461, 58.978543 ], [ 18.138991, 58.973793 ], [ 18.121406, 58.972222 ], [ 18.111513, 58.976171 ], [ 18.108507, 58.984307 ], [ 18.100555, 58.988201 ], [ 18.090575, 58.985423 ], [ 18.083068, 58.975524 ], [ 18.073556, 58.971048 ] ] ] ] } },
{ "type": "Feature", "properties": { "fid": 11, "KnKod": "0138", "KnNamn": "Tyresö" }, "geometry": { "type": "MultiPolygon", "coordinates": [ [ [ [ 18.328519, 59.170256 ], [ 18.313447, 59.1804 ], [ 18.298001, 59.187199 ], [ 18.289504, 59.198174 ], [ 18.259244, 59.211744 ], [ 18.233111, 59.221834 ], [ 18.208219, 59.220113 ], [ 18.178744, 59.21391 ], [ 18.167903, 59.23548 ], [ 18.178617, 59.234307 ], [ 18.1916, 59.240032 ], [ 18.194168, 59.245679 ], [ 18.188884, 59.248838 ], [ 18.234944, 59.26144 ], [ 18.246865, 59.257436 ], [ 18.26471, 59.260001 ], [ 18.288602, 59.258371 ], [ 18.340287, 59.238525 ], [ 18.357171, 59.22731 ], [ 18.371764, 59.22423 ], [ 18.387112, 59.222139 ], [ 18.403977, 59.205216 ], [ 18.396102, 59.199032 ], [ 18.375242, 59.192872 ], [ 18.365473, 59.181371 ], [ 18.378889, 59.173841 ], [ 18.365569, 59.170951 ], [ 18.348733, 59.165678 ], [ 18.328519, 59.170256 ] ] ] ] } },
{ "type": "Feature", "properties": { "fid": 12, "KnKod": "0139", "KnNamn": "Upplands-Bro" }, "geometry": { "type": "MultiPolygon", "coordinates": [ [ [ [ 17.676745, 59.616366 ], [ 17.700699, 59.612826 ], [ 17.74147, 59.59985 ], [ 17.776998, 59.594032 ], [ 17.805981, 59.581965 ], [ 17.81007, 59.57481 ], [ 17.806157, 59.557765 ], [ 17.812863, 59.546187 ], [ 17.83223, 59.530293 ], [ 17.829586, 59.523626 ], [ 17.81366, 59.515252 ], [ 17.807046, 59.506203 ], [ 17.803036, 59.487938 ], [ 17.798455, 59.472798 ], [ 17.782673, 59.467551 ], [ 17.772393, 59.482557 ], [ 17.759835, 59.481497 ], [ 17.751009, 59.464883 ], [ 17.752247, 59.444357 ], [ 17.739598, 59.435566 ], [ 17.729286, 59.437128 ], [ 17.729893, 59.443161 ], [ 17.716322, 59.444806 ], [ 17.699692, 59.448523 ], [ 17.698094, 59.465704 ], [ 17.688824, 59.47127 ], [ 17.687814, 59.481044 ], [ 17.669459, 59.487484 ], [ 17.646691, 59.49569 ], [ 17.625881, 59.497139 ], [ 17.611939, 59.488363 ], [ 17.615284, 59.482247 ], [ 17.621799, 59.475046 ], [ 17.617299, 59.469092 ], [ 17.600997, 59.469434 ], [ 17.595871, 59.477603 ], [ 17.596477, 59.497751 ], [ 17.589069, 59.502611 ], [ 17.576561, 59.501856 ], [ 17.570743, 59.495595 ], [ 17.575983, 59.488773 ], [ 17.568012, 59.487579 ], [ 17.532094, 59.509488 ], [ 17.52739, 59.515296 ], [ 17.53121, 59.521262 ], [ 17.545641, 59.528361 ], [ 17.560469, 59.532769 ], [ 17.571852, 59.549334 ], [ 17.568493, 59.555457 ], [ 17.566923, 59.561979 ], [ 17.572391, 59.575866 ], [ 17.534157, 59.595131 ], [ 17.531193, 59.61266 ], [ 17.545176, 59.628842 ], [ 17.561107, 59.637249 ], [ 17.575667, 59.638302 ], [ 17.590997, 59.649856 ], [ 17.632879, 59.638461 ], [ 17.663973, 59.627053 ], [ 17.676745, 59.616366 ] ] ] ] } },
{ "type": "Feature", "properties": { "fid": 13, "KnKod": "0140", "KnNamn": "Nykvarn" }, "geometry": { "type": "MultiPolygon", "coordinates": [ [ [ [ 17.417814, 59.242273 ], [ 17.48818, 59.222271 ], [ 17.538048, 59.230669 ], [ 17.564708, 59.199535 ], [ 17.499612, 59.167812 ], [ 17.484455, 59.146284 ], [ 17.490787, 59.131719 ], [ 17.463906, 59.122107 ], [ 17.416482, 59.124514 ], [ 17.325693, 59.1419 ], [ 17.303927, 59.141568 ], [ 17.254163, 59.190434 ], [ 17.240336, 59.242192 ], [ 17.284754, 59.267957 ], [ 17.302341, 59.251856 ], [ 17.331373, 59.257032 ], [ 17.361936, 59.25712 ], [ 17.384796, 59.250982 ], [ 17.417814, 59.242273 ] ] ] ] } },
{ "type": "Feature", "properties": { "fid": 14, "KnKod": "0160", "KnNamn": "Täby" }, "geometry": { "type": "MultiPolygon", "coordinates": [ [ [ [ 18.085777, 59.505183 ], [ 18.104965, 59.507065 ], [ 18.118245, 59.496657 ], [ 18.143419, 59.493453 ], [ 18.146665, 59.4694 ], [ 18.133718, 59.458963 ], [ 18.142179, 59.44889 ], [ 18.109654, 59.436365 ], [ 18.116344, 59.431829 ], [ 18.101267, 59.425486 ], [ 18.096859, 59.419196 ], [ 18.052269, 59.425664 ], [ 18.057771, 59.440322 ], [ 18.044247, 59.448044 ], [ 18.03583, 59.442872 ], [ 18.021263, 59.441207 ], [ 17.997127, 59.466316 ], [ 18.00259, 59.480637 ], [ 17.991201, 59.496703 ], [ 18.02158, 59.511332 ], [ 18.060635, 59.508815 ], [ 18.085777, 59.505183 ] ] ] ] } },
{ "type": "Feature", "properties": { "fid": 15, "KnKod": "0162", "KnNamn": "Danderyd" }, "geometry": { "type": "MultiPolygon", "coordinates": [ [ [ [ 18.004192, 59.422117 ], [ 18.019751, 59.433178 ], [ 18.021263, 59.441207 ], [ 18.03583, 59.442872 ], [ 18.044247, 59.448044 ], [ 18.057771, 59.440322 ], [ 18.052269, 59.425664 ], [ 18.096859, 59.419196 ], [ 18.095769, 59.405117 ], [ 18.087946, 59.393284 ], [ 18.060346, 59.377994 ], [ 18.000057, 59.399585 ], [ 18.005185, 59.406979 ], [ 18.004192, 59.422117 ] ] ] ] } },
{ "type": "Feature", "properties": { "fid": 16, "KnKod": "0163", "KnNamn": "Sollentuna" }, "geometry": { "type": "MultiPolygon", "coordinates": [ [ [ [ 17.927942, 59.499208 ], [ 17.938523, 59.493918 ], [ 17.952046, 59.491919 ], [ 17.966196, 59.483182 ], [ 17.963845, 59.473155 ], [ 17.97961, 59.46774 ], [ 17.997127, 59.466316 ], [ 18.021263, 59.441207 ], [ 18.019751, 59.433178 ], [ 18.004192, 59.422117 ], [ 18.005185, 59.406979 ], [ 18.000057, 59.399585 ], [ 17.976661, 59.393618 ], [ 17.964156, 59.40795 ], [ 17.938541, 59.412915 ], [ 17.925594, 59.420273 ], [ 17.914393, 59.431965 ], [ 17.901601, 59.434614 ], [ 17.887899, 59.428763 ], [ 17.878253, 59.43011 ], [ 17.876573, 59.445608 ], [ 17.871362, 59.452111 ], [ 17.852121, 59.455915 ], [ 17.847402, 59.460721 ], [ 17.845254, 59.465477 ], [ 17.827304, 59.468907 ], [ 17.838068, 59.476274 ], [ 17.875971, 59.484264 ], [ 17.88079, 59.492897 ], [ 17.905518, 59.491318 ], [ 17.927942, 59.499208 ] ] ] ] } },
{ "type": "Feature", "properties": { "fid": 17, "KnKod": "0180", "KnNamn": "Stockholm" }, "geometry": { "type": "MultiPolygon", "coordinates": [ [ [ [ 18.066713, 59.324236 ], [ 18.066597, 59.322494 ], [ 18.079942, 59.319456 ], [ 18.102464, 59.317103 ], [ 18.102505, 59.305456 ], [ 18.113487, 59.304507 ], [ 18.121024, 59.301976 ], [ 18.120745, 59.287523 ], [ 18.146551, 59.27378 ], [ 18.160127, 59.260999 ], [ 18.172904, 59.253278 ], [ 18.188884, 59.248838 ], [ 18.194168, 59.245679 ], [ 18.1916, 59.240032 ], [ 18.178617, 59.234307 ], [ 18.167903, 59.23548 ], [ 18.147021, 59.242503 ], [ 18.121087, 59.243155 ], [ 18.110825, 59.238362 ], [ 18.097699, 59.237346 ], [ 18.083479, 59.238035 ], [ 18.06037, 59.246663 ], [ 18.036107, 59.250942 ], [ 18.022026, 59.259022 ], [ 17.972028, 59.265924 ], [ 17.956453, 59.278736 ], [ 17.943326, 59.283747 ], [ 17.925001, 59.282834 ], [ 17.911342, 59.27677 ], [ 17.899251, 59.273004 ], [ 17.882584, 59.27328 ], [ 17.875862, 59.279601 ], [ 17.880823, 59.289902 ], [ 17.904859, 59.295731 ], [ 17.921886, 59.303062 ], [ 17.941183, 59.306985 ], [ 17.961764, 59.310867 ], [ 17.985436, 59.313006 ], [ 17.993085, 59.31752 ], [ 18.015895, 59.317648 ], [ 18.038456, 59.321475 ], [ 18.061766, 59.323103 ], [ 18.064008, 59.324519 ], [ 18.067669, 59.332528 ], [ 18.045927, 59.330362 ], [ 18.028952, 59.330105 ], [ 18.011232, 59.334905 ], [ 17.99407, 59.345638 ], [ 18.003335, 59.346523 ], [ 18.012506, 59.34697 ], [ 18.024933, 59.353395 ], [ 18.035406, 59.353809 ], [ 18.043315, 59.360678 ], [ 18.040997, 59.363421 ], [ 18.039911, 59.371521 ], [ 18.060346, 59.377994 ], [ 18.097517, 59.355328 ], [ 18.124274, 59.343568 ], [ 18.137468, 59.333158 ], [ 18.137377, 59.326443 ], [ 18.124492, 59.321724 ], [ 18.108432, 59.323796 ], [ 18.091219, 59.333303 ], [ 18.070529, 59.332782 ], [ 18.07755, 59.327579 ], [ 18.066713, 59.324236 ] ] ], [ [ [ 17.948251, 59.318588 ], [ 17.93172, 59.328718 ], [ 17.913011, 59.330503 ], [ 17.902477, 59.335791 ], [ 17.894882, 59.344362 ], [ 17.85698, 59.356322 ], [ 17.831032, 59.370358 ], [ 17.79701, 59.389037 ], [ 17.810188, 59.396701 ], [ 17.820917, 59.399481 ], [ 17.830967, 59.395563 ], [ 17.834648, 59.386734 ], [ 17.84362, 59.385193 ], [ 17.855095, 59.388964 ], [ 17.875736, 59.399252 ], [ 17.887222, 59.409396 ], [ 17.890388, 59.42109 ], [ 17.887899, 59.428763 ], [ 17.901601, 59.434614 ], [ 17.914393, 59.431965 ], [ 17.925594, 59.420273 ], [ 17.938541, 59.412915 ], [ 17.964156, 59.40795 ], [ 17.976661, 59.393618 ], [ 17.967767, 59.392742 ], [ 17.955926, 59.385628 ], [ 17.93343, 59.382791 ], [ 17.931609, 59.371408 ], [ 17.959952, 59.368052 ], [ 17.972124, 59.357793 ], [ 17.993285, 59.34609 ], [ 17.988417, 59.347213 ], [ 17.984069, 59.343281 ], [ 17.982333, 59.332903 ], [ 17.975349, 59.322315 ], [ 17.960699, 59.319307 ], [ 17.948251, 59.318588 ] ] ] ] } },
{ "type": "Feature", "properties": { "fid": 18, "KnKod": "0181", "KnNamn": "Södertälje" }, "geometry": { "type": "MultiPolygon", "coordinates": [ [ [ [ 17.303927, 59.141568 ], [ 17.325693, 59.1419 ], [ 17.416482, 59.124514 ], [ 17.463906, 59.122107 ], [ 17.490787, 59.131719 ], [ 17.484455, 59.146284 ], [ 17.499612, 59.167812 ], [ 17.564708, 59.199535 ], [ 17.538048, 59.230669 ], [ 17.48818, 59.222271 ], [ 17.417814, 59.242273 ], [ 17.414639, 59.250401 ], [ 17.380737, 59.278935 ], [ 17.376787, 59.285735 ], [ 17.378398, 59.311581 ], [ 17.368501, 59.317482 ], [ 17.366573, 59.325244 ], [ 17.383772, 59.328279 ], [ 17.389691, 59.321438 ], [ 17.399883, 59.318889 ], [ 17.425107, 59.309663 ], [ 17.438141, 59.309752 ], [ 17.465832, 59.292066 ], [ 17.544409, 59.268982 ], [ 17.566468, 59.268533 ], [ 17.578035, 59.260232 ], [ 17.590452, 59.240139 ], [ 17.607317, 59.218951 ], [ 17.614939, 59.210396 ], [ 17.629051, 59.208412 ], [ 17.632331, 59.215738 ], [ 17.619787, 59.234149 ], [ 17.614284, 59.256331 ], [ 17.631451, 59.254404 ], [ 17.645272, 59.256131 ], [ 17.654647, 59.258952 ], [ 17.660949, 59.256807 ], [ 17.659549, 59.249105 ], [ 17.666549, 59.247604 ], [ 17.665041, 59.238566 ], [ 17.646871, 59.23895 ], [ 17.645202, 59.23496 ], [ 17.650246, 59.226458 ], [ 17.665011, 59.224793 ], [ 17.677688, 59.228221 ], [ 17.710107, 59.200975 ], [ 17.712022, 59.193872 ], [ 17.709785, 59.184171 ], [ 17.731868, 59.177983 ], [ 17.73301, 59.162827 ], [ 17.727923, 59.157227 ], [ 17.691719, 59.142664 ], [ 17.685639, 59.149073 ], [ 17.679557, 59.159963 ], [ 17.673866, 59.168143 ], [ 17.667043, 59.171321 ], [ 17.656866, 59.166824 ], [ 17.659241, 59.157704 ], [ 17.675933, 59.142559 ], [ 17.680901, 59.126658 ], [ 17.679969, 59.116929 ], [ 17.67366, 59.112027 ], [ 17.663839, 59.110893 ], [ 17.65493, 59.11243 ], [ 17.648537, 59.106514 ], [ 17.653237, 59.101383 ], [ 17.625121, 59.091553 ], [ 17.618321, 59.088002 ], [ 17.618123, 59.078936 ], [ 17.631864, 59.07394 ], [ 17.633251, 59.067859 ], [ 17.614969, 59.052115 ], [ 17.615065, 59.011789 ], [ 17.621523, 58.998212 ], [ 17.632879, 59.002344 ], [ 17.648137, 59.0205 ], [ 17.653273, 59.033824 ], [ 17.656891, 59.05156 ], [ 17.672312, 59.057283 ], [ 17.686, 59.051608 ], [ 17.688628, 59.038775 ], [ 17.693013, 58.990295 ], [ 17.695216, 58.959329 ], [ 17.687006, 58.940691 ], [ 17.676147, 58.935209 ], [ 17.65799, 58.940642 ], [ 17.636978, 58.943105 ], [ 17.618954, 58.904846 ], [ 17.600144, 58.947795 ], [ 17.525309, 58.9678 ], [ 17.521573, 58.991662 ], [ 17.364024, 58.992151 ], [ 17.289024, 59.050115 ], [ 17.303927, 59.141568 ] ] ] ] } },
{ "type": "Feature", "properties": { "fid": 19, "KnKod": "0182", "KnNamn": "Nacka" }, "geometry": { "type": "MultiPolygon", "coordinates": [ [ [ [ 18.160127, 59.260999 ], [ 18.146551, 59.27378 ], [ 18.120745, 59.287523 ], [ 18.121024, 59.301976 ], [ 18.113487, 59.304507 ], [ 18.102505, 59.305456 ], [ 18.102464, 59.317103 ], [ 18.120532, 59.315428 ], [ 18.142981, 59.318233 ], [ 18.178424, 59.326412 ], [ 18.197951, 59.331973 ], [ 18.205027, 59.331125 ], [ 18.204333, 59.319032 ], [ 18.207074, 59.302835 ], [ 18.213601, 59.297282 ], [ 18.251995, 59.296971 ], [ 18.271657, 59.298145 ], [ 18.286936, 59.295053 ], [ 18.294942, 59.285435 ], [ 18.298684, 59.278277 ], [ 18.324362, 59.275251 ], [ 18.337749, 59.272872 ], [ 18.341523, 59.266045 ], [ 18.330753, 59.262976 ], [ 18.310916, 59.265856 ], [ 18.276389, 59.271131 ], [ 18.258752, 59.270576 ], [ 18.254526, 59.267665 ], [ 18.257425, 59.264557 ], [ 18.26471, 59.260001 ], [ 18.246865, 59.257436 ], [ 18.234944, 59.26144 ], [ 18.188884, 59.248838 ], [ 18.172904, 59.253278 ], [ 18.160127, 59.260999 ] ] ], [ [ [ 18.304814, 59.33728 ], [ 18.299056, 59.321296 ], [ 18.293701, 59.314376 ], [ 18.280049, 59.309023 ], [ 18.258594, 59.303528 ], [ 18.234686, 59.305152 ], [ 18.223355, 59.308802 ], [ 18.222518, 59.312859 ], [ 18.222101, 59.320599 ], [ 18.226699, 59.344015 ], [ 18.25088, 59.350452 ], [ 18.259764, 59.353923 ], [ 18.264468, 59.360848 ], [ 18.306965, 59.361764 ], [ 18.324388, 59.359965 ], [ 18.345361, 59.360969 ], [ 18.359475, 59.3587 ], [ 18.357477, 59.347315 ], [ 18.343246, 59.331445 ], [ 18.329971, 59.334936 ], [ 18.304814, 59.33728 ] ] ] ] } },
{ "type": "Feature", "properties": { "fid": 20, "KnKod": "0183", "KnNamn": "Sundbyberg" }, "geometry": { "type": "MultiPolygon", "coordinates": [ [ [ [ 17.959952, 59.368052 ], [ 17.931609, 59.371408 ], [ 17.93343, 59.382791 ], [ 17.955926, 59.385628 ], [ 17.967767, 59.392742 ], [ 17.976661, 59.393618 ], [ 17.990775, 59.375729 ], [ 17.972124, 59.357793 ], [ 17.959952, 59.368052 ] ] ] ] } },
{ "type": "Feature", "properties": { "fid": 21, "KnKod": "0184", "KnNamn": "Solna" }, "geometry": { "type": "MultiPolygon", "coordinates": [ [ [ [ 18.040997, 59.363421 ], [ 18.043315, 59.360678 ], [ 18.035406, 59.353809 ], [ 18.024933, 59.353395 ], [ 18.012506, 59.34697 ], [ 18.003335, 59.346523 ], [ 17.99407, 59.345638 ], [ 17.993285, 59.34609 ], [ 17.972124, 59.357793 ], [ 17.990775, 59.375729 ], [ 17.976661, 59.393618 ], [ 18.000057, 59.399585 ], [ 18.060346, 59.377994 ], [ 18.039911, 59.371521 ], [ 18.040997, 59.363421 ] ] ] ] } },
{ "type": "Feature", "properties": { "fid": 22, "KnKod": "0186", "KnNamn": "Lidingö" }, "geometry": { "type": "MultiPolygon", "coordinates": [ [ [ [ 18.105841, 59.389746 ], [ 18.113317, 59.392245 ], [ 18.128821, 59.390857 ], [ 18.148584, 59.38666 ], [ 18.175219, 59.379606 ], [ 18.203603, 59.376537 ], [ 18.214522, 59.374908 ], [ 18.229159, 59.377565 ], [ 18.242653, 59.375536 ], [ 18.244544, 59.369268 ], [ 18.238558, 59.368239 ], [ 18.22288, 59.367974 ], [ 18.216677, 59.365107 ], [ 18.218248, 59.361701 ], [ 18.223675, 59.357865 ], [ 18.217804, 59.351975 ], [ 18.205612, 59.347916 ], [ 18.188211, 59.343988 ], [ 18.166114, 59.344542 ], [ 18.143721, 59.348465 ], [ 18.130059, 59.360572 ], [ 18.126169, 59.366721 ], [ 18.126281, 59.373768 ], [ 18.119644, 59.378636 ], [ 18.10754, 59.381302 ], [ 18.10472, 59.385401 ], [ 18.105841, 59.389746 ] ] ] ] } },
{ "type": "Feature", "properties": { "fid": 23, "KnKod": "0187", "KnNamn": "Vaxholm" }, "geometry": { "type": "MultiPolygon", "coordinates": [ [ [ [ 18.281091, 59.409163 ], [ 18.26898, 59.406123 ], [ 18.272473, 59.40233 ], [ 18.294732, 59.402761 ], [ 18.302691, 59.398182 ], [ 18.294205, 59.392686 ], [ 18.271694, 59.389907 ], [ 18.214718, 59.388348 ], [ 18.200814, 59.392403 ], [ 18.185254, 59.393468 ], [ 18.163482, 59.397384 ], [ 18.165293, 59.40775 ], [ 18.168555, 59.419437 ], [ 18.175163, 59.425989 ], [ 18.195041, 59.422466 ], [ 18.20304, 59.423945 ], [ 18.218907, 59.419316 ], [ 18.23447, 59.430199 ], [ 18.245512, 59.42958 ], [ 18.263256, 59.430469 ], [ 18.271701, 59.424194 ], [ 18.285573, 59.414089 ], [ 18.281091, 59.409163 ] ] ], [ [ [ 18.312578, 59.432882 ], [ 18.314075, 59.440244 ], [ 18.32375, 59.444683 ], [ 18.332344, 59.445469 ], [ 18.344602, 59.438424 ], [ 18.358592, 59.435026 ], [ 18.360109, 59.431288 ], [ 18.336917, 59.428542 ], [ 18.317422, 59.418303 ], [ 18.30558, 59.423317 ], [ 18.312578, 59.432882 ] ] ] ] } },
{ "type": "Feature", "properties": { "fid": 24, "KnKod": "0188", "KnNamn": "Norrtälje" }, "geometry": { "type": "MultiPolygon", "coordinates": [ [ [ [ 18.447915, 59.558355 ], [ 18.447513, 59.566095 ], [ 18.436031, 59.567072 ], [ 18.429815, 59.582715 ], [ 18.418195, 59.595458 ], [ 18.39331, 59.601501 ], [ 18.388047, 59.61813 ], [ 18.378197, 59.623765 ], [ 18.387692, 59.648392 ], [ 18.385258, 59.655517 ], [ 18.350809, 59.664828 ], [ 18.326651, 59.683273 ], [ 18.2977, 59.67798 ], [ 18.291139, 59.683869 ], [ 18.243451, 59.664253 ], [ 18.196538, 59.668474 ], [ 18.185567, 59.664713 ], [ 18.173052, 59.664688 ], [ 18.171204, 59.671465 ], [ 18.164097, 59.678705 ], [ 18.146419, 59.679587 ], [ 18.140708, 59.687339 ], [ 18.118871, 59.698304 ], [ 18.124563, 59.70791 ], [ 18.132575, 59.714773 ], [ 18.127063, 59.718606 ], [ 18.110279, 59.715992 ], [ 18.097745, 59.72168 ], [ 18.089113, 59.73617 ], [ 18.139852, 59.814183 ], [ 18.297402, 59.832982 ], [ 18.373792, 59.868909 ], [ 18.40307, 59.995846 ], [ 18.44192, 60.003725 ], [ 18.381745, 60.045322 ], [ 18.462471, 60.056729 ], [ 18.489071, 60.10562 ], [ 18.511026, 60.154871 ], [ 18.610151, 60.141576 ], [ 18.676015, 60.130879 ], [ 18.708433, 60.162891 ], [ 18.72124, 60.21286 ], [ 18.799134, 60.171984 ], [ 18.781543, 60.10782 ], [ 18.820072, 60.091958 ], [ 18.859799, 60.003105 ], [ 18.928784, 59.937304 ], [ 19.021668, 59.900471 ], [ 19.08446, 59.871543 ], [ 19.04132, 59.818641 ], [ 18.969726, 59.820956 ], [ 18.969629, 59.777213 ], [ 19.068609, 59.759855 ], [ 19.075388, 59.715534 ], [ 19.015062, 59.696883 ], [ 18.859512, 59.706135 ], [ 18.741484, 59.675711 ], [ 18.724231, 59.622475 ], [ 18.667257, 59.577367 ], [ 18.647064, 59.586735 ], [ 18.627714, 59.579222 ], [ 18.619291, 59.58014 ], [ 18.61276, 59.585705 ], [ 18.607741, 59.587528 ], [ 18.593547, 59.584238 ], [ 18.585258, 59.591527 ], [ 18.574106, 59.591835 ], [ 18.56063, 59.58885 ], [ 18.551947, 59.593137 ], [ 18.522591, 59.589581 ], [ 18.492726, 59.592424 ], [ 18.484962, 59.582552 ], [ 18.488361, 59.57809 ], [ 18.487864, 59.574068 ], [ 18.477085, 59.560916 ], [ 18.461432, 59.556303 ], [ 18.447915, 59.558355 ] ] ], [ [ [ 18.972181, 59.641387 ], [ 18.970247, 59.620845 ], [ 18.91402, 59.619495 ], [ 18.90549, 59.594654 ], [ 18.857652, 59.599334 ], [ 18.772414, 59.569064 ], [ 18.754459, 59.577517 ], [ 18.807697, 59.598692 ], [ 18.856548, 59.638774 ], [ 18.917326, 59.655239 ], [ 18.972181, 59.641387 ] ] ] ] } },
{ "type": "Feature", "properties": { "fid": 25, "KnKod": "0191", "KnNamn": "Sigtuna" }, "geometry": { "type": "MultiPolygon", "coordinates": [ [ [ [ 17.676745, 59.616366 ], [ 17.663973, 59.627053 ], [ 17.632879, 59.638461 ], [ 17.590997, 59.649856 ], [ 17.582593, 59.655967 ], [ 17.611492, 59.669148 ], [ 17.639781, 59.675948 ], [ 17.635583, 59.695022 ], [ 17.665055, 59.692221 ], [ 17.692603, 59.690957 ], [ 17.705538, 59.681954 ], [ 17.73096, 59.679393 ], [ 17.736256, 59.666503 ], [ 17.755198, 59.665074 ], [ 17.768466, 59.679242 ], [ 17.791488, 59.68545 ], [ 17.81316, 59.684977 ], [ 17.823837, 59.680028 ], [ 17.843437, 59.684969 ], [ 17.838221, 59.691802 ], [ 17.917551, 59.707135 ], [ 17.937364, 59.707686 ], [ 17.955044, 59.712651 ], [ 17.9881, 59.725988 ], [ 18.009217, 59.726166 ], [ 18.036765, 59.736934 ], [ 18.046335, 59.734015 ], [ 18.067722, 59.736522 ], [ 18.089113, 59.73617 ], [ 18.097745, 59.72168 ], [ 18.110279, 59.715992 ], [ 18.127063, 59.718606 ], [ 18.132575, 59.714773 ], [ 18.124563, 59.70791 ], [ 18.118871, 59.698304 ], [ 18.140708, 59.687339 ], [ 18.146419, 59.679587 ], [ 18.125073, 59.676976 ], [ 18.130309, 59.670795 ], [ 18.11529, 59.66613 ], [ 18.101389, 59.653362 ], [ 18.093478, 59.635407 ], [ 18.057151, 59.633934 ], [ 18.043708, 59.631236 ], [ 18.014972, 59.632936 ], [ 18.01973, 59.603915 ], [ 18.016612, 59.587185 ], [ 18.011029, 59.577904 ], [ 18.018887, 59.571666 ], [ 18.004778, 59.568644 ], [ 17.980874, 59.564059 ], [ 17.964645, 59.561526 ], [ 17.928794, 59.56371 ], [ 17.883704, 59.559036 ], [ 17.863788, 59.563185 ], [ 17.854654, 59.570116 ], [ 17.81007, 59.57481 ], [ 17.805981, 59.581965 ], [ 17.776998, 59.594032 ], [ 17.74147, 59.59985 ], [ 17.700699, 59.612826 ], [ 17.676745, 59.616366 ] ] ] ] } },
{ "type": "Feature", "properties": { "fid": 26, "KnKod": "0192", "KnNamn": "Nynäshamn" }, "geometry": { "type": "MultiPolygon", "coordinates": [ [ [ [ 17.764431, 59.093576 ], [ 17.77766, 59.096645 ], [ 17.807843, 59.100673 ], [ 17.858109, 59.09213 ], [ 17.877035, 59.093724 ], [ 17.899136, 59.107324 ], [ 17.893259, 59.113175 ], [ 17.901522, 59.12441 ], [ 17.921773, 59.128194 ], [ 17.926591, 59.122477 ], [ 17.93698, 59.116515 ], [ 17.94978, 59.121261 ], [ 17.970916, 59.119079 ], [ 17.972051, 59.104943 ], [ 17.980964, 59.103717 ], [ 17.978129, 59.095045 ], [ 17.965318, 59.083917 ], [ 17.954836, 59.07644 ], [ 17.955451, 59.06366 ], [ 17.962247, 59.054415 ], [ 17.99522, 59.04825 ], [ 18.000029, 59.042754 ], [ 17.997927, 59.037096 ], [ 18.005592, 59.011697 ], [ 18.007261, 59.002922 ], [ 18.002329, 58.999009 ], [ 17.993893, 58.998541 ], [ 17.990314, 59.007698 ], [ 17.983766, 59.0129 ], [ 17.976205, 59.002323 ], [ 17.973946, 58.992968 ], [ 17.955928, 58.968519 ], [ 17.963536, 58.936082 ], [ 17.95218, 58.913489 ], [ 17.929476, 58.90562 ], [ 17.906945, 58.892706 ], [ 17.890932, 58.868207 ], [ 17.875352, 58.860178 ], [ 17.848612, 58.811385 ], [ 17.785476, 58.8024 ], [ 17.785788, 58.812138 ], [ 17.803687, 58.824506 ], [ 17.817573, 58.83495 ], [ 17.821706, 58.850654 ], [ 17.800556, 58.877337 ], [ 17.776535, 58.901412 ], [ 17.753955, 58.914011 ], [ 17.74722, 58.924241 ], [ 17.753595, 58.930152 ], [ 17.757259, 58.967712 ], [ 17.745924, 58.977032 ], [ 17.74735, 58.985075 ], [ 17.756765, 58.99561 ], [ 17.747996, 59.024709 ], [ 17.736598, 59.040431 ], [ 17.737544, 59.050142 ], [ 17.749108, 59.062666 ], [ 17.760939, 59.071136 ], [ 17.757473, 59.081972 ], [ 17.764431, 59.093576 ] ] ] ] } },
{ "type": "Feature", "properties": { "fid": 27, "KnKod": "0305", "KnNamn": "Håbo" }, "geometry": { "type": "MultiPolygon", "coordinates": [ [ [ [ 17.611492, 59.669148 ], [ 17.582593, 59.655967 ], [ 17.590997, 59.649856 ], [ 17.575667, 59.638302 ], [ 17.561107, 59.637249 ], [ 17.545176, 59.628842 ], [ 17.531193, 59.61266 ], [ 17.534157, 59.595131 ], [ 17.572391, 59.575866 ], [ 17.566923, 59.561979 ], [ 17.552568, 59.560474 ], [ 17.540022, 59.545611 ], [ 17.526511, 59.534126 ], [ 17.507476, 59.533836 ], [ 17.473953, 59.546935 ], [ 17.44175, 59.568071 ], [ 17.414156, 59.589439 ], [ 17.404213, 59.603063 ], [ 17.398461, 59.619634 ], [ 17.36606, 59.61224 ], [ 17.453158, 59.667997 ], [ 17.50156, 59.711732 ], [ 17.479334, 59.731068 ], [ 17.60761, 59.733791 ], [ 17.635583, 59.695022 ], [ 17.639781, 59.675948 ], [ 17.611492, 59.669148 ] ] ] ] } },
{ "type": "Feature", "properties": { "fid": 29, "KnKod": "0330", "KnNamn": "Knivsta" }, "geometry": { "type": "MultiPolygon", "coordinates": [ [ [ [ 17.606054, 59.733758 ], [ 17.610014, 59.744765 ], [ 17.613521, 59.76138 ], [ 17.622172, 59.773139 ], [ 17.649306, 59.783056 ], [ 17.667922, 59.797235 ], [ 17.675667, 59.789448 ], [ 17.672319, 59.776621 ], [ 17.694181, 59.765771 ], [ 17.727954, 59.769562 ], [ 17.7353, 59.774533 ], [ 17.765662, 59.78217 ], [ 17.771045, 59.800536 ], [ 17.787232, 59.810319 ], [ 17.800029, 59.821251 ], [ 17.809514, 59.823655 ], [ 17.820901, 59.822922 ], [ 17.842645, 59.820998 ], [ 17.860409, 59.816076 ], [ 17.879555, 59.813874 ], [ 17.899077, 59.817871 ], [ 17.920191, 59.818486 ], [ 17.938462, 59.816695 ], [ 17.953195, 59.810655 ], [ 17.971649, 59.806888 ], [ 17.990476, 59.809195 ], [ 18.00905, 59.813312 ], [ 18.026865, 59.828103 ], [ 18.052792, 59.819909 ], [ 18.065476, 59.809437 ], [ 18.085489, 59.812043 ], [ 18.097104, 59.811486 ], [ 18.117067, 59.815291 ], [ 18.139762, 59.814318 ], [ 18.089113, 59.73617 ], [ 18.067722, 59.736522 ], [ 18.046335, 59.734015 ], [ 18.036765, 59.736934 ], [ 18.009217, 59.726166 ], [ 17.9881, 59.725988 ], [ 17.955044, 59.712651 ], [ 17.937364, 59.707686 ], [ 17.917551, 59.707135 ], [ 17.838221, 59.691802 ], [ 17.843437, 59.684969 ], [ 17.823837, 59.680028 ], [ 17.81316, 59.684977 ], [ 17.791488, 59.68545 ], [ 17.768466, 59.679242 ], [ 17.755198, 59.665074 ], [ 17.736256, 59.666503 ], [ 17.73096, 59.679393 ], [ 17.705538, 59.681954 ], [ 17.692603, 59.690957 ], [ 17.665055, 59.692221 ], [ 17.635583, 59.695022 ], [ 17.606054, 59.733758 ] ] ] ] } },
{ "type": "Feature", "properties": { "fid": 32, "KnKod": "0380", "KnNamn": "Uppsala" }, "geometry": { "type": "MultiPolygon", "coordinates": [ [ [ [ 18.089113, 59.73617 ], [ 18.139762, 59.814318 ], [ 18.117067, 59.815291 ], [ 18.097104, 59.811486 ], [ 18.085489, 59.812043 ], [ 18.065476, 59.809437 ], [ 18.052792, 59.819909 ], [ 18.026865, 59.828103 ], [ 18.00905, 59.813312 ], [ 17.990476, 59.809195 ], [ 17.971649, 59.806888 ], [ 17.953195, 59.810655 ], [ 17.938462, 59.816695 ], [ 17.920191, 59.818486 ], [ 17.899077, 59.817871 ], [ 17.879555, 59.813874 ], [ 17.860409, 59.816076 ], [ 17.842645, 59.820998 ], [ 17.820901, 59.822922 ], [ 17.809514, 59.823655 ], [ 17.800029, 59.821251 ], [ 17.787232, 59.810319 ], [ 17.771045, 59.800536 ], [ 17.765662, 59.78217 ], [ 17.7353, 59.774533 ], [ 17.727954, 59.769562 ], [ 17.694181, 59.765771 ], [ 17.672319, 59.776621 ], [ 17.675667, 59.789448 ], [ 17.667922, 59.797235 ], [ 17.649306, 59.783056 ], [ 17.622172, 59.773139 ], [ 17.613521, 59.76138 ], [ 17.610014, 59.744765 ], [ 17.606054, 59.733758 ], [ 17.479334, 59.731068 ], [ 17.387396, 59.73796 ], [ 17.383103, 59.785431 ], [ 17.323353, 59.802311 ], [ 17.282614, 59.785196 ], [ 17.21375, 59.833484 ], [ 17.155908, 59.832016 ], [ 17.154824, 59.866543 ], [ 17.127571, 59.88384 ], [ 17.134164, 59.959637 ], [ 17.093406, 59.982384 ], [ 17.109999, 60.003029 ], [ 17.176491, 60.007573 ], [ 17.204766, 60.043759 ], [ 17.257178, 60.036516 ], [ 17.303912, 60.060512 ], [ 17.298228, 60.104492 ], [ 17.319128, 60.139571 ], [ 17.373601, 60.152547 ], [ 17.476021, 60.192566 ], [ 17.495909, 60.136735 ], [ 17.558668, 60.115973 ], [ 17.71675, 60.147626 ], [ 17.829725, 60.14911 ], [ 17.807735, 60.112588 ], [ 17.86911, 60.111736 ], [ 17.86835, 60.073653 ], [ 17.945995, 60.031603 ], [ 18.102798, 60.047138 ], [ 18.145088, 60.02033 ], [ 18.381745, 60.045322 ], [ 18.44192, 60.003725 ], [ 18.40307, 59.995846 ], [ 18.373792, 59.868909 ], [ 18.297402, 59.832982 ], [ 18.139852, 59.814183 ], [ 18.089113, 59.73617 ] ] ] ] } },
{ "type": "Feature", "properties": { "fid": 34, "KnKod": "0382", "KnNamn": "Östhammar" }, "geometry": { "type": "MultiPolygon", "coordinates": [ [ [ [ 18.44291, 60.416863 ], [ 18.511715, 60.356888 ], [ 18.581041, 60.344181 ], [ 18.567023, 60.312511 ], [ 18.481869, 60.310067 ], [ 18.562043, 60.274663 ], [ 18.600467, 60.235216 ], [ 18.569808, 60.208494 ], [ 18.508033, 60.209722 ], [ 18.511026, 60.154871 ], [ 18.489071, 60.10562 ], [ 18.462471, 60.056729 ], [ 18.381745, 60.045322 ], [ 18.145088, 60.02033 ], [ 18.102798, 60.047138 ], [ 17.945995, 60.031603 ], [ 17.86835, 60.073653 ], [ 17.86911, 60.111736 ], [ 17.807735, 60.112588 ], [ 17.829725, 60.14911 ], [ 17.71675, 60.147626 ], [ 17.726953, 60.205583 ], [ 17.746416, 60.245934 ], [ 17.790459, 60.319002 ], [ 17.912902, 60.313726 ], [ 17.953796, 60.339782 ], [ 17.959344, 60.404759 ], [ 18.047405, 60.405525 ], [ 18.101811, 60.438116 ], [ 18.270583, 60.360934 ], [ 18.368708, 60.346141 ], [ 18.404778, 60.36702 ], [ 18.366411, 60.45369 ], [ 18.372928, 60.496873 ], [ 18.408752, 60.505043 ], [ 18.44291, 60.416863 ] ] ] ] } },
{ "type": "Feature", "properties": { "fid": 36, "KnKod": "0461", "KnNamn": "Gnesta" }, "geometry": { "type": "MultiPolygon", "coordinates": [ [ [ [ 17.387683, 58.929418 ], [ 17.342299, 58.9555 ], [ 17.313318, 58.947687 ], [ 17.279297, 58.958278 ], [ 17.247382, 58.95149 ], [ 17.212112, 58.971271 ], [ 17.183947, 58.981772 ], [ 17.143021, 58.974049 ], [ 17.051147, 59.012743 ], [ 16.98315, 59.060565 ], [ 16.877241, 59.123965 ], [ 16.894724, 59.14998 ], [ 16.869455, 59.160747 ], [ 16.927125, 59.218474 ], [ 17.175647, 59.212265 ], [ 17.197903, 59.19076 ], [ 17.254163, 59.190434 ], [ 17.303927, 59.141568 ], [ 17.289024, 59.050115 ], [ 17.364024, 58.992151 ], [ 17.403763, 58.952709 ], [ 17.387683, 58.929418 ] ] ] ] } },
{ "type": "Feature", "properties": { "fid": 42, "KnKod": "0486", "KnNamn": "Strängnäs" }, "geometry": { "type": "MultiPolygon", "coordinates": [ [ [ [ 16.969231, 59.488028 ], [ 17.015124, 59.499426 ], [ 17.073358, 59.477285 ], [ 17.042172, 59.441306 ], [ 17.078193, 59.377104 ], [ 17.153434, 59.37916 ], [ 17.120086, 59.439568 ], [ 17.147418, 59.461268 ], [ 17.281386, 59.442831 ], [ 17.324372, 59.392575 ], [ 17.272602, 59.359903 ], [ 17.303483, 59.355916 ], [ 17.312515, 59.324398 ], [ 17.257342, 59.304688 ], [ 17.284754, 59.267957 ], [ 17.240336, 59.242192 ], [ 17.254163, 59.190434 ], [ 17.197903, 59.19076 ], [ 17.175647, 59.212265 ], [ 16.927125, 59.218474 ], [ 16.842026, 59.229654 ], [ 16.825433, 59.251295 ], [ 16.812251, 59.396559 ], [ 16.704142, 59.465498 ], [ 16.785572, 59.467716 ], [ 16.838846, 59.480503 ], [ 16.952667, 59.452867 ], [ 16.969231, 59.488028 ] ] ] ] } }
]
}
