{
"type": "FeatureCollection",
"name": "nationalparker-stockholm",
"crs": { "type": "name", "properties": { "name": "urn:ogc:def:crs:OGC:1.3:CRS84" } },
"xy_coordinate_resolution": 1e-06,
"features": [
{ "type": "Feature", "properties": { "fid": 1, "NVRID": "2001214", "NAMN": "Tyresta", "SKYDDSTYP": "Nationalpark", "BESLSTATUS": "Gällande", "URSBESLDAT": "1993-05-27", "IKRAFTDATF": null, "URSGALLDAT": "1993-07-01", "SENGALLDAT": "2017-03-01", "TILLSYNSMH": null, "PROVNMHDIS": null, "PROVNMHTIL": null, "LAN": "Stockholms Län", "KOMMUN": "Haninge, Tyresö", "IUCNKAT": "II, Nationalpark (National Park)", "FORVALTARE": "Stiftelsen Tyrestaskogen", "AREA_HA": 1962.11, "LAND_HA": 1874.61, "VATTEN_HA": 87.58, "SKOG_HA": 966.08, "GEOSTATUS": "Justerad mot fastighetskarta", "DIARIENR": "NV-11759-11", "LAGRUM": "Miljöbalken", "BESLMYND": "Naturvårdsverket" }, "geometry": { "type": "MultiPolygon", "coordinates": [ [ [ [ 18.278317, 59.170799 ], [ 18.262019, 59.165731 ], [ 18.257775, 59.164907 ], [ 18.257775, 59.164907 ], [ 18.257775, 59.164907 ], [ 18.257181, 59.165239 ], [ 18.255763, 59.165276 ], [ 18.253963, 59.165475 ], [ 18.252916, 59.165783 ], [ 18.253237, 59.166544 ], [ 18.254017, 59.166792 ], [ 18.253373, 59.167219 ], [ 18.252719, 59.167409 ], [ 18.2526, 59.167444 ], [ 18.251739, 59.167858 ], [ 18.251876, 59.168243 ], [ 18.251655, 59.168554 ], [ 18.250641, 59.168168 ], [ 18.249958, 59.168246 ], [ 18.24931, 59.168502 ], [ 18.248629, 59.168772 ], [ 18.248015, 59.168519 ], [ 18.246947, 59.168901 ], [ 18.245855, 59.168756 ], [ 18.243997, 59.169241 ], [ 18.243813, 59.169816 ], [ 18.242321, 59.170096 ], [ 18.242072, 59.170084 ], [ 18.24206, 59.170084 ], [ 18.239523, 59.169955 ], [ 18.238853, 59.169975 ], [ 18.238423, 59.170069 ], [ 18.238489, 59.17035 ], [ 18.238542, 59.170716 ], [ 18.238327, 59.17115 ], [ 18.238309, 59.171185 ], [ 18.238302, 59.1712 ], [ 18.237049, 59.17105 ], [ 18.235884, 59.171152 ], [ 18.234651, 59.171142 ], [ 18.232954, 59.171133 ], [ 18.231594, 59.171135 ], [ 18.230857, 59.171331 ], [ 18.229071, 59.171052 ], [ 18.228548, 59.171013 ], [ 18.227929, 59.170967 ], [ 18.226955, 59.171148 ], [ 18.226645, 59.171356 ], [ 18.226244, 59.171623 ], [ 18.225933, 59.172359 ], [ 18.225172, 59.172575 ], [ 18.224443, 59.172608 ], [ 18.223729, 59.172902 ], [ 18.223658, 59.172909 ], [ 18.22291, 59.172988 ], [ 18.222095, 59.173466 ], [ 18.221876, 59.174026 ], [ 18.221945, 59.174526 ], [ 18.221938, 59.175779 ], [ 18.22214, 59.17699 ], [ 18.220229, 59.176795 ], [ 18.220658, 59.178528 ], [ 18.219025, 59.179158 ], [ 18.218102, 59.1794 ], [ 18.2176, 59.1793 ], [ 18.217427, 59.179265 ], [ 18.217338, 59.179346 ], [ 18.217139, 59.179503 ], [ 18.217005, 59.179586 ], [ 18.216734, 59.179717 ], [ 18.216533, 59.179846 ], [ 18.216419, 59.179956 ], [ 18.216319, 59.180039 ], [ 18.216234, 59.180067 ], [ 18.216076, 59.180061 ], [ 18.216028, 59.180125 ], [ 18.215965, 59.180225 ], [ 18.215833, 59.180335 ], [ 18.21561, 59.180393 ], [ 18.215421, 59.180442 ], [ 18.215323, 59.180543 ], [ 18.215294, 59.180633 ], [ 18.21523, 59.180715 ], [ 18.215197, 59.180742 ], [ 18.215257, 59.180849 ], [ 18.215213, 59.180967 ], [ 18.215015, 59.181132 ], [ 18.214734, 59.181362 ], [ 18.214413, 59.181529 ], [ 18.214198, 59.181704 ], [ 18.214035, 59.181878 ], [ 18.213938, 59.181987 ], [ 18.213893, 59.182096 ], [ 18.213829, 59.182178 ], [ 18.213727, 59.182225 ], [ 18.213573, 59.182263 ], [ 18.213451, 59.182275 ], [ 18.21336, 59.182232 ], [ 18.213339, 59.182178 ], [ 18.2133, 59.182116 ], [ 18.21335, 59.182088 ], [ 18.213381, 59.182034 ], [ 18.213379, 59.181998 ], [ 18.213324, 59.181972 ], [ 18.213222, 59.18201 ], [ 18.21314, 59.182083 ], [ 18.21295, 59.182123 ], [ 18.212738, 59.182091 ], [ 18.2126, 59.182129 ], [ 18.212483, 59.182194 ], [ 18.21238, 59.182223 ], [ 18.212317, 59.182323 ], [ 18.212321, 59.182386 ], [ 18.212344, 59.182457 ], [ 18.212313, 59.182512 ], [ 18.212243, 59.182513 ], [ 18.212156, 59.182524 ], [ 18.21209, 59.182588 ], [ 18.21199, 59.182652 ], [ 18.211977, 59.182716 ], [ 18.212013, 59.182733 ], [ 18.212066, 59.182741 ], [ 18.212135, 59.182722 ], [ 18.21217, 59.182721 ], [ 18.212204, 59.182711 ], [ 18.212224, 59.182747 ], [ 18.212228, 59.182801 ], [ 18.212282, 59.182818 ], [ 18.21237, 59.182825 ], [ 18.212475, 59.182832 ], [ 18.21251, 59.182822 ], [ 18.212543, 59.182804 ], [ 18.212577, 59.182785 ], [ 18.212649, 59.182811 ], [ 18.21267, 59.182864 ], [ 18.212642, 59.182963 ], [ 18.212576, 59.183018 ], [ 18.212456, 59.183057 ], [ 18.212427, 59.183129 ], [ 18.212353, 59.183319 ], [ 18.212362, 59.183453 ], [ 18.21242, 59.183533 ], [ 18.212532, 59.18363 ], [ 18.212608, 59.183709 ], [ 18.212615, 59.183808 ], [ 18.212503, 59.183855 ], [ 18.212443, 59.183971 ], [ 18.212425, 59.184017 ], [ 18.212393, 59.184083 ], [ 18.212353, 59.184169 ], [ 18.21253, 59.184208 ], [ 18.213425, 59.184404 ], [ 18.215031, 59.184757 ], [ 18.215677, 59.1849 ], [ 18.215812, 59.18493 ], [ 18.216417, 59.185065 ], [ 18.217198, 59.185239 ], [ 18.217328, 59.185266 ], [ 18.217714, 59.185351 ], [ 18.2181, 59.185436 ], [ 18.218236, 59.185466 ], [ 18.219203, 59.185681 ], [ 18.219949, 59.185845 ], [ 18.221168, 59.186113 ], [ 18.221304, 59.186144 ], [ 18.221923, 59.186277 ], [ 18.22206, 59.186307 ], [ 18.223114, 59.186543 ], [ 18.225286, 59.187007 ], [ 18.225887, 59.18719 ], [ 18.22765, 59.187728 ], [ 18.231558, 59.18892 ], [ 18.235442, 59.190104 ], [ 18.235991, 59.190271 ], [ 18.237016, 59.190273 ], [ 18.237859, 59.190342 ], [ 18.239042, 59.190268 ], [ 18.239704, 59.190227 ], [ 18.239832, 59.1902 ], [ 18.240111, 59.190215 ], [ 18.241369, 59.19092 ], [ 18.24155, 59.191022 ], [ 18.242428, 59.192012 ], [ 18.242733, 59.192251 ], [ 18.243106, 59.192388 ], [ 18.243046, 59.192535 ], [ 18.243145, 59.192626 ], [ 18.243906, 59.192602 ], [ 18.244009, 59.192594 ], [ 18.244176, 59.192562 ], [ 18.244364, 59.19247 ], [ 18.24454, 59.192311 ], [ 18.244909, 59.192051 ], [ 18.24531, 59.191837 ], [ 18.246284, 59.191503 ], [ 18.247486, 59.191673 ], [ 18.249089, 59.19302 ], [ 18.251824, 59.193716 ], [ 18.254363, 59.194319 ], [ 18.255961, 59.194944 ], [ 18.259248, 59.196125 ], [ 18.260486, 59.196621 ], [ 18.261225, 59.196891 ], [ 18.261423, 59.196975 ], [ 18.264557, 59.198218 ], [ 18.266926, 59.199092 ], [ 18.268921, 59.199853 ], [ 18.268939, 59.200006 ], [ 18.269049, 59.200887 ], [ 18.26905, 59.200902 ], [ 18.269248, 59.201568 ], [ 18.269415, 59.202135 ], [ 18.270686, 59.202484 ], [ 18.272736, 59.202583 ], [ 18.275422, 59.202639 ], [ 18.27544, 59.202639 ], [ 18.276888, 59.202679 ], [ 18.276888, 59.202679 ], [ 18.278799, 59.202705 ], [ 18.279739, 59.202688 ], [ 18.281418, 59.202749 ], [ 18.282865, 59.202871 ], [ 18.288925, 59.203724 ], [ 18.291762, 59.203182 ], [ 18.291762, 59.203182 ], [ 18.295827, 59.20246 ], [ 18.300153, 59.202353 ], [ 18.303467, 59.202632 ], [ 18.306648, 59.202578 ], [ 18.310959, 59.202775 ], [ 18.314157, 59.203204 ], [ 18.317256, 59.203171 ], [ 18.318503, 59.203194 ], [ 18.319358, 59.202558 ], [ 18.320174, 59.201918 ], [ 18.31979, 59.201502 ], [ 18.32012, 59.201111 ], [ 18.321143, 59.201209 ], [ 18.321672, 59.200776 ], [ 18.321672, 59.200776 ], [ 18.322912, 59.19983 ], [ 18.324275, 59.198724 ], [ 18.324677, 59.198386 ], [ 18.324532, 59.197837 ], [ 18.324865, 59.19593 ], [ 18.32538, 59.195372 ], [ 18.326368, 59.195241 ], [ 18.327991, 59.194387 ], [ 18.33043, 59.193841 ], [ 18.330627, 59.193561 ], [ 18.330313, 59.193024 ], [ 18.331642, 59.192865 ], [ 18.33156, 59.192463 ], [ 18.33154, 59.191759 ], [ 18.331412, 59.191417 ], [ 18.33138, 59.190729 ], [ 18.33111, 59.189997 ], [ 18.331077, 59.189075 ], [ 18.331481, 59.18806 ], [ 18.331517, 59.187888 ], [ 18.331783, 59.186687 ], [ 18.331834, 59.184715 ], [ 18.331884, 59.182993 ], [ 18.332051, 59.18072 ], [ 18.333643, 59.180558 ], [ 18.335733, 59.180351 ], [ 18.337284, 59.180111 ], [ 18.339029, 59.179874 ], [ 18.340442, 59.179681 ], [ 18.341294, 59.178539 ], [ 18.341153, 59.178149 ], [ 18.340775, 59.177744 ], [ 18.340424, 59.177112 ], [ 18.339995, 59.175701 ], [ 18.339663, 59.17523 ], [ 18.3388, 59.174272 ], [ 18.338768, 59.17367 ], [ 18.338436, 59.173147 ], [ 18.338436, 59.173147 ], [ 18.338435, 59.173147 ], [ 18.338164, 59.172915 ], [ 18.337737, 59.172803 ], [ 18.336848, 59.172756 ], [ 18.335091, 59.172773 ], [ 18.334742, 59.171938 ], [ 18.335033, 59.170656 ], [ 18.334147, 59.170194 ], [ 18.333317, 59.169353 ], [ 18.332777, 59.168794 ], [ 18.331919, 59.168393 ], [ 18.330147, 59.168203 ], [ 18.329041, 59.168551 ], [ 18.328358, 59.169105 ], [ 18.327787, 59.169096 ], [ 18.326862, 59.168543 ], [ 18.32743, 59.168129 ], [ 18.326939, 59.167726 ], [ 18.325834, 59.16726 ], [ 18.324802, 59.167272 ], [ 18.324325, 59.167162 ], [ 18.322954, 59.166627 ], [ 18.322072, 59.166387 ], [ 18.32123, 59.166027 ], [ 18.320025, 59.165882 ], [ 18.319647, 59.165837 ], [ 18.316088, 59.165663 ], [ 18.31512, 59.165223 ], [ 18.314618, 59.165114 ], [ 18.310698, 59.171374 ], [ 18.307103, 59.177134 ], [ 18.304809, 59.180671 ], [ 18.301761, 59.180792 ], [ 18.301506, 59.180802 ], [ 18.299449, 59.179598 ], [ 18.291685, 59.176366 ], [ 18.285895, 59.173939 ], [ 18.278778, 59.170942 ], [ 18.278346, 59.170808 ], [ 18.278318, 59.170799 ], [ 18.278317, 59.170799 ] ] ] ] } },
{ "type": "Feature", "properties": { "fid": 2, "NVRID": "2001213", "NAMN": "Ängsö", "SKYDDSTYP": "Nationalpark", "BESLSTATUS": "Gällande", "URSBESLDAT": "1909-05-24", "IKRAFTDATF": null, "URSGALLDAT": "1909-05-24", "SENGALLDAT": "1909-05-24", "TILLSYNSMH": null, "PROVNMHDIS": null, "PROVNMHTIL": null, "LAN": "Stockholms Län", "KOMMUN": "Norrtälje", "IUCNKAT": "IV, Habitat/Artskyddsområde (Habitat/Species Management Area)", "FORVALTARE": "Länsstyrelsen i Stockholms län", "AREA_HA": 194.897, "LAND_HA": 80.8, "VATTEN_HA": 114.07, "SKOG_HA": 62.72, "GEOSTATUS": "Justerad mot fastighetskarta", "DIARIENR": "xxxxxx", "LAGRUM": "Naturvårdslagen", "BESLMYND": "Riksdag/Regering" }, "geometry": { "type": "MultiPolygon", "coordinates": [ [ [ [ 18.762676, 59.614931 ], [ 18.757546, 59.618225 ], [ 18.752552, 59.619319 ], [ 18.752028, 59.621849 ], [ 18.752006, 59.621954 ], [ 18.754452, 59.622923 ], [ 18.754492, 59.624668 ], [ 18.756103, 59.625963 ], [ 18.753439, 59.6294 ], [ 18.753741, 59.629747 ], [ 18.756982, 59.632833 ], [ 18.77076, 59.631275 ], [ 18.778268, 59.626756 ], [ 18.773904, 59.623734 ], [ 18.770807, 59.621586 ], [ 18.770879, 59.621423 ], [ 18.771815, 59.619325 ], [ 18.77436, 59.619303 ], [ 18.770786, 59.614913 ], [ 18.762676, 59.61493 ], [ 18.762676, 59.614931 ] ] ] ] } },
{ "type": "Feature", "properties": { "fid": 3, "NVRID": "2065762", "NAMN": "Nämdöskärgårdens nationalpark", "SKYDDSTYP": "Nationalpark", "BESLSTATUS": "Gällande", "URSBESLDAT": "2025-06-19", "IKRAFTDATF": null, "URSGALLDAT": "2025-07-21", "SENGALLDAT": "2025-07-21", "TILLSYNSMH": null, "PROVNMHDIS": null, "PROVNMHTIL": null, "LAN": "Stockholms Län", "KOMMUN": "Värmdö", "IUCNKAT": "II, Nationalpark (National Park)", "FORVALTARE": "Länsstyrelsen i Stockholms län", "AREA_HA": 25294.075, "LAND_HA": 834.92, "VATTEN_HA": 24459.0, "SKOG_HA": 102.64, "GEOSTATUS": "Ospecificerad", "DIARIENR": null, "LAGRUM": "Miljöbalken", "BESLMYND": "Riksdag/Regering" }, "geometry": { "type": "MultiPolygon", "coordinates": [ [ [ [ 18.870064, 59.21889 ], [ 18.876336, 59.214776 ], [ 18.894004, 59.203179 ], [ 18.894008, 59.203177 ], [ 18.92977, 59.206702 ], [ 19.06246, 59.129646 ], [ 18.703988, 58.984894 ], [ 18.676481, 58.999629 ], [ 18.673682, 59.001127 ], [ 18.673668, 59.001135 ], [ 18.67364, 59.001154 ], [ 18.67364, 59.001154 ], [ 18.66078, 59.010068 ], [ 18.66051, 59.010255 ], [ 18.660474, 59.01028 ], [ 18.660474, 59.01028 ], [ 18.694389, 59.022227 ], [ 18.689833, 59.041633 ], [ 18.689833, 59.041636 ], [ 18.715157, 59.044705 ], [ 18.767946, 59.051085 ], [ 18.791872, 59.053967 ], [ 18.810203, 59.056171 ], [ 18.833962, 59.059025 ], [ 18.834023, 59.059032 ], [ 18.834023, 59.059032 ], [ 18.834023, 59.059032 ], [ 18.834023, 59.059032 ], [ 18.830371, 59.062094 ], [ 18.824647, 59.066892 ], [ 18.806796, 59.081848 ], [ 18.803099, 59.085004 ], [ 18.802528, 59.085491 ], [ 18.802506, 59.08551 ], [ 18.802497, 59.085517 ], [ 18.802497, 59.085517 ], [ 18.781773, 59.104336 ], [ 18.781721, 59.104383 ], [ 18.773215, 59.11214 ], [ 18.772748, 59.112566 ], [ 18.763168, 59.121297 ], [ 18.763167, 59.121299 ], [ 18.744633, 59.125357 ], [ 18.744628, 59.125358 ], [ 18.754318, 59.134361 ], [ 18.784771, 59.151193 ], [ 18.766229, 59.155863 ], [ 18.752915, 59.147975 ], [ 18.743363, 59.139175 ], [ 18.740747, 59.140407 ], [ 18.718777, 59.150749 ], [ 18.718709, 59.150756 ], [ 18.709313, 59.151725 ], [ 18.709153, 59.151977 ], [ 18.708961, 59.15228 ], [ 18.70865, 59.152772 ], [ 18.708649, 59.152829 ], [ 18.708638, 59.153563 ], [ 18.708623, 59.154524 ], [ 18.714393, 59.159044 ], [ 18.714405, 59.159054 ], [ 18.714431, 59.159074 ], [ 18.715173, 59.162767 ], [ 18.716128, 59.167524 ], [ 18.716161, 59.167542 ], [ 18.716375, 59.167659 ], [ 18.717464, 59.168253 ], [ 18.721603, 59.170511 ], [ 18.714662, 59.173101 ], [ 18.713862, 59.1734 ], [ 18.713592, 59.1735 ], [ 18.713653, 59.17354 ], [ 18.714088, 59.173806 ], [ 18.716267, 59.175119 ], [ 18.716245, 59.175251 ], [ 18.716244, 59.175257 ], [ 18.716206, 59.175489 ], [ 18.716206, 59.175489 ], [ 18.716206, 59.175489 ], [ 18.716206, 59.175491 ], [ 18.716197, 59.175545 ], [ 18.716197, 59.175545 ], [ 18.716195, 59.175555 ], [ 18.715974, 59.176889 ], [ 18.715684, 59.178644 ], [ 18.715531, 59.179563 ], [ 18.715547, 59.179563 ], [ 18.717833, 59.179575 ], [ 18.719455, 59.179583 ], [ 18.720193, 59.179587 ], [ 18.720376, 59.179588 ], [ 18.720412, 59.179588 ], [ 18.720646, 59.179589 ], [ 18.721153, 59.179789 ], [ 18.725796, 59.181615 ], [ 18.725799, 59.181616 ], [ 18.732132, 59.183927 ], [ 18.741165, 59.187223 ], [ 18.741169, 59.187223 ], [ 18.741438, 59.187244 ], [ 18.747247, 59.187696 ], [ 18.747247, 59.187696 ], [ 18.750453, 59.187945 ], [ 18.757016, 59.188454 ], [ 18.757018, 59.188455 ], [ 18.768807, 59.192066 ], [ 18.771166, 59.192788 ], [ 18.77674, 59.194494 ], [ 18.776793, 59.19451 ], [ 18.776793, 59.19451 ], [ 18.776082, 59.195112 ], [ 18.770694, 59.199668 ], [ 18.77012, 59.200226 ], [ 18.76954, 59.200808 ], [ 18.769175, 59.201436 ], [ 18.769039, 59.201787 ], [ 18.768824, 59.202342 ], [ 18.768728, 59.202946 ], [ 18.768778, 59.203475 ], [ 18.768992, 59.203982 ], [ 18.769391, 59.204638 ], [ 18.770234, 59.205678 ], [ 18.7708, 59.206249 ], [ 18.771728, 59.207045 ], [ 18.772949, 59.208335 ], [ 18.774019, 59.210613 ], [ 18.775111, 59.212937 ], [ 18.775819, 59.214444 ], [ 18.775875, 59.214565 ], [ 18.775991, 59.214831 ], [ 18.776028, 59.214913 ], [ 18.777008, 59.217084 ], [ 18.779172, 59.221876 ], [ 18.779499, 59.2219 ], [ 18.780821, 59.221995 ], [ 18.782765, 59.222136 ], [ 18.782898, 59.222146 ], [ 18.787111, 59.222451 ], [ 18.798633, 59.223285 ], [ 18.80204, 59.223531 ], [ 18.802098, 59.223535 ], [ 18.809149, 59.220076 ], [ 18.809506, 59.219901 ], [ 18.809509, 59.219901 ], [ 18.809822, 59.219898 ], [ 18.810397, 59.219892 ], [ 18.810478, 59.219892 ], [ 18.810562, 59.219891 ], [ 18.810571, 59.219891 ], [ 18.810573, 59.219891 ], [ 18.810573, 59.219891 ], [ 18.81948, 59.221338 ], [ 18.853577, 59.228614 ], [ 18.854421, 59.228794 ], [ 18.870064, 59.21889 ] ], [ [ 18.797411, 59.145733 ], [ 18.79947, 59.145646 ], [ 18.801456, 59.146734 ], [ 18.803026, 59.147138 ], [ 18.802863, 59.148232 ], [ 18.802404, 59.148555 ], [ 18.800283, 59.149077 ], [ 18.797946, 59.148835 ], [ 18.79671, 59.148219 ], [ 18.796726, 59.147842 ], [ 18.797536, 59.146868 ], [ 18.797411, 59.145733 ] ], [ [ 18.865875, 59.169524 ], [ 18.870975, 59.169331 ], [ 18.87196, 59.169964 ], [ 18.908684, 59.193537 ], [ 18.894015, 59.203172 ], [ 18.866106, 59.195466 ], [ 18.865978, 59.195431 ], [ 18.860067, 59.193798 ], [ 18.85025, 59.191086 ], [ 18.852851, 59.186236 ], [ 18.851558, 59.18539 ], [ 18.851509, 59.185376 ], [ 18.85043, 59.185088 ], [ 18.845073, 59.183655 ], [ 18.845072, 59.183655 ], [ 18.840212, 59.182354 ], [ 18.829477, 59.179513 ], [ 18.836331, 59.175871 ], [ 18.838591, 59.174671 ], [ 18.84287, 59.172396 ], [ 18.844681, 59.171434 ], [ 18.844681, 59.171434 ], [ 18.845943, 59.170763 ], [ 18.846267, 59.17059 ], [ 18.846854, 59.170341 ], [ 18.847485, 59.170071 ], [ 18.847487, 59.170071 ], [ 18.865674, 59.16953 ], [ 18.865875, 59.169524 ] ] ] ] } }
]
}
