{"type":"FeatureCollection","features":[{"type":"Feature","geometry":{"type":"MultiPolygon","coordinates":[[[[18.87006,59.21889],[18.85442,59.22879],[18.85358,59.22861],[18.81948,59.22134],[18.81057,59.21989],[18.81057,59.21989],[18.81057,59.21989],[18.81056,59.21989],[18.81048,59.21989],[18.8104,59.21989],[18.80982,59.2199],[18.80951,59.2199],[18.80951,59.2199],[18.80915,59.22008],[18.8021,59.22354],[18.80204,59.22353],[18.79863,59.22328],[18.78711,59.22245],[18.7829,59.22215],[18.78276,59.22214],[18.78082,59.222],[18.7795,59.2219],[18.77917,59.22188],[18.77701,59.21708],[18.77603,59.21491],[18.77599,59.21483],[18.77588,59.21456],[18.77582,59.21444],[18.77511,59.21294],[18.77402,59.21061],[18.77295,59.20833],[18.77173,59.20705],[18.7708,59.20625],[18.77023,59.20568],[18.76939,59.20464],[18.76899,59.20398],[18.76878,59.20347],[18.76873,59.20295],[18.76882,59.20234],[18.76904,59.20179],[18.76917,59.20144],[18.76954,59.20081],[18.77012,59.20023],[18.77069,59.19967],[18.77608,59.19511],[18.77679,59.19451],[18.77679,59.19451],[18.77674,59.19449],[18.77117,59.19279],[18.76881,59.19207],[18.75702,59.18845],[18.75702,59.18845],[18.75045,59.18794],[18.74725,59.1877],[18.74725,59.1877],[18.74144,59.18724],[18.74117,59.18722],[18.74117,59.18722],[18.73213,59.18393],[18.7258,59.18162],[18.7258,59.18162],[18.72115,59.17979],[18.72065,59.17959],[18.72041,59.17959],[18.72038,59.17959],[18.72019,59.17959],[18.71945,59.17958],[18.71783,59.17957],[18.71555,59.17956],[18.71553,59.17956],[18.71568,59.17864],[18.71597,59.17689],[18.7162,59.17556],[18.7162,59.17554],[18.7162,59.17554],[18.71621,59.17549],[18.71621,59.17549],[18.71621,59.17549],[18.71621,59.17549],[18.71624,59.17526],[18.71625,59.17525],[18.71627,59.17512],[18.71409,59.17381],[18.71365,59.17354],[18.71359,59.1735],[18.71386,59.1734],[18.71466,59.1731],[18.7216,59.17051],[18.71746,59.16825],[18.71637,59.16766],[18.71616,59.16754],[18.71613,59.16752],[18.71517,59.16277],[18.71443,59.15907],[18.71441,59.15905],[18.71439,59.15904],[18.70862,59.15452],[18.70864,59.15356],[18.70865,59.15283],[18.70865,59.15277],[18.70896,59.15228],[18.70915,59.15198],[18.70931,59.15172],[18.71871,59.15076],[18.71878,59.15075],[18.74075,59.14041],[18.74336,59.13918],[18.75292,59.14798],[18.76623,59.15586],[18.78477,59.15119],[18.75432,59.13436],[18.74463,59.12536],[18.74463,59.12536],[18.76317,59.1213],[18.76317,59.1213],[18.77275,59.11257],[18.77322,59.11214],[18.78172,59.10438],[18.78177,59.10434],[18.8025,59.08552],[18.8025,59.08552],[18.80251,59.08551],[18.80253,59.08549],[18.8031,59.085],[18.8068,59.08185],[18.82465,59.06689],[18.83037,59.06209],[18.83402,59.05903],[18.83402,59.05903],[18.83402,59.05903],[18.83402,59.05903],[18.83396,59.05902],[18.8102,59.05617],[18.79187,59.05397],[18.76795,59.05108],[18.71516,59.0447],[18.68983,59.04164],[18.68983,59.04163],[18.69439,59.02223],[18.66047,59.01028],[18.66047,59.01028],[18.66051,59.01026],[18.66078,59.01007],[18.67364,59.00115],[18.67364,59.00115],[18.67367,59.00113],[18.67368,59.00113],[18.67648,58.99963],[18.70399,58.98489],[19.06246,59.12965],[18.92977,59.2067],[18.89401,59.20318],[18.894,59.20318],[18.87634,59.21478],[18.87006,59.21889]],[[18.79741,59.14573],[18.79754,59.14687],[18.79673,59.14784],[18.79671,59.14822],[18.79795,59.14884],[18.80028,59.14908],[18.8024,59.14856],[18.80286,59.14823],[18.80303,59.14714],[18.80146,59.14673],[18.79947,59.14565],[18.79741,59.14573]],[[18.86587,59.16952],[18.86567,59.16953],[18.84749,59.17007],[18.84749,59.17007],[18.84685,59.17034],[18.84627,59.17059],[18.84594,59.17076],[18.84468,59.17143],[18.84468,59.17143],[18.84287,59.1724],[18.83859,59.17467],[18.83633,59.17587],[18.82948,59.17951],[18.84021,59.18235],[18.84507,59.18365],[18.84507,59.18365],[18.85043,59.18509],[18.85151,59.18538],[18.85156,59.18539],[18.85285,59.18624],[18.85025,59.19109],[18.86007,59.1938],[18.86598,59.19543],[18.86611,59.19547],[18.89402,59.20317],[18.90868,59.19354],[18.87196,59.16996],[18.87098,59.16933],[18.86587,59.16952]]]]},"properties":{"NVRID":"2065762","NAMN":"Nämdöskärgårdens nationalpark","SKYDDSTYP":"Nationalpark","BESLUTSSTATUS":"Gällande","LAN":"Stockholms Län","KOMMUN":"Värmdö","IUCNKATEGORI":"II, Nationalpark (National Park)","FORVALTARE":"Länsstyrelsen i Stockholms län","AREA_HA":25293.92,"LAND_HA":834.92,"VATTEN_HA":24459.0,"SKOG_HA":102.64,"URSPR_BESLUTSDATUM":"2025-06-19"}},{"type":"Feature","geometry":{"type":"MultiPolygon","coordinates":[[[[18.27832,59.1708],[18.27832,59.1708],[18.27835,59.17081],[18.27878,59.17094],[18.2859,59.17394],[18.29169,59.17637],[18.29945,59.1796],[18.30151,59.1808],[18.30176,59.18079],[18.30481,59.18067],[18.3071,59.17713],[18.3107,59.17137],[18.31462,59.16511],[18.31512,59.16522],[18.31609,59.16566],[18.31965,59.16584],[18.32002,59.16588],[18.32123,59.16603],[18.32207,59.16639],[18.32295,59.16663],[18.32432,59.16716],[18.3248,59.16727],[18.32583,59.16726],[18.32694,59.16773],[18.32743,59.16813],[18.32686,59.16854],[18.32779,59.1691],[18.32836,59.16911],[18.32904,59.16855],[18.33015,59.1682],[18.33192,59.16839],[18.33278,59.16879],[18.33332,59.16935],[18.33415,59.17019],[18.33503,59.17066],[18.33474,59.17194],[18.33509,59.17277],[18.33685,59.17276],[18.33774,59.1728],[18.33816,59.17292],[18.33844,59.17315],[18.33844,59.17315],[18.33844,59.17315],[18.33877,59.17367],[18.3388,59.17427],[18.33966,59.17523],[18.33999,59.1757],[18.34042,59.17711],[18.34078,59.17774],[18.34115,59.17815],[18.34129,59.17854],[18.34044,59.17968],[18.33903,59.17987],[18.33728,59.18011],[18.33573,59.18035],[18.33364,59.18056],[18.33205,59.18072],[18.33188,59.18299],[18.33183,59.18472],[18.33178,59.18669],[18.33152,59.18789],[18.33148,59.18806],[18.33108,59.18907],[18.33111,59.19],[18.33138,59.19073],[18.33141,59.19142],[18.33154,59.19176],[18.33156,59.19246],[18.33164,59.19287],[18.33031,59.19302],[18.33063,59.19356],[18.33043,59.19384],[18.32799,59.19439],[18.32637,59.19524],[18.32538,59.19537],[18.32487,59.19593],[18.32453,59.19784],[18.32468,59.19839],[18.32427,59.19872],[18.32291,59.19983],[18.32167,59.20078],[18.32167,59.20078],[18.32114,59.20121],[18.32012,59.20111],[18.31979,59.2015],[18.32017,59.20192],[18.31936,59.20256],[18.3185,59.20319],[18.31726,59.20317],[18.31416,59.2032],[18.31096,59.20277],[18.30665,59.20258],[18.30347,59.20263],[18.30015,59.20235],[18.29583,59.20246],[18.29176,59.20318],[18.29176,59.20318],[18.28892,59.20372],[18.28287,59.20287],[18.28142,59.20275],[18.27974,59.20269],[18.2788,59.2027],[18.27689,59.20268],[18.27689,59.20268],[18.27544,59.20264],[18.27542,59.20264],[18.27274,59.20258],[18.27069,59.20248],[18.26942,59.20213],[18.26925,59.20157],[18.26905,59.2009],[18.26905,59.20089],[18.26894,59.20001],[18.26892,59.19985],[18.26693,59.19909],[18.26456,59.19822],[18.26142,59.19698],[18.26122,59.19689],[18.26049,59.19662],[18.25925,59.19613],[18.25596,59.19494],[18.25436,59.19432],[18.25182,59.19372],[18.24909,59.19302],[18.24749,59.19167],[18.24628,59.1915],[18.24531,59.19184],[18.24491,59.19205],[18.24454,59.19231],[18.24436,59.19247],[18.24418,59.19256],[18.24401,59.19259],[18.24391,59.1926],[18.24315,59.19263],[18.24305,59.19253],[18.24311,59.19239],[18.24273,59.19225],[18.24243,59.19201],[18.24155,59.19102],[18.24137,59.19092],[18.24011,59.19021],[18.23983,59.1902],[18.2397,59.19023],[18.23904,59.19027],[18.23786,59.19034],[18.23702,59.19027],[18.23599,59.19027],[18.23544,59.1901],[18.23156,59.18892],[18.22765,59.18773],[18.22589,59.18719],[18.22529,59.18701],[18.22311,59.18654],[18.22206,59.18631],[18.22192,59.18628],[18.2213,59.18614],[18.22117,59.18611],[18.21995,59.18585],[18.2192,59.18568],[18.21824,59.18547],[18.2181,59.18544],[18.21771,59.18535],[18.21733,59.18527],[18.2172,59.18524],[18.21642,59.18507],[18.21581,59.18493],[18.21568,59.1849],[18.21503,59.18476],[18.21342,59.1844],[18.21253,59.18421],[18.21235,59.18417],[18.21239,59.18408],[18.21242,59.18402],[18.21244,59.18397],[18.2125,59.18386],[18.21262,59.18381],[18.21261,59.18371],[18.21253,59.18363],[18.21242,59.18353],[18.21236,59.18345],[18.21235,59.18332],[18.21243,59.18313],[18.21246,59.18306],[18.21258,59.18302],[18.21264,59.18296],[18.21267,59.18286],[18.21265,59.18281],[18.21258,59.18279],[18.21254,59.1828],[18.21251,59.18282],[18.21248,59.18283],[18.21237,59.18282],[18.21228,59.18282],[18.21223,59.1828],[18.21222,59.18275],[18.2122,59.18271],[18.21217,59.18272],[18.21214,59.18272],[18.21207,59.18274],[18.21201,59.18273],[18.21198,59.18272],[18.21199,59.18265],[18.21209,59.18259],[18.21216,59.18252],[18.21224,59.18251],[18.21231,59.18251],[18.21234,59.18246],[18.21232,59.18239],[18.21232,59.18232],[18.21238,59.18222],[18.21248,59.18219],[18.2126,59.18213],[18.21274,59.18209],[18.21295,59.18212],[18.21314,59.18208],[18.21322,59.18201],[18.21332,59.18197],[18.21338,59.182],[18.21338,59.18203],[18.21335,59.18209],[18.2133,59.18212],[18.21334,59.18218],[18.21336,59.18223],[18.21345,59.18227],[18.21357,59.18226],[18.21373,59.18222],[18.21383,59.18218],[18.21389,59.1821],[18.21394,59.18199],[18.21404,59.18188],[18.2142,59.1817],[18.21441,59.18153],[18.21473,59.18136],[18.21501,59.18113],[18.21521,59.18097],[18.21526,59.18085],[18.2152,59.18074],[18.21523,59.18071],[18.21529,59.18063],[18.21532,59.18054],[18.21542,59.18044],[18.21561,59.18039],[18.21583,59.18034],[18.21597,59.18023],[18.21603,59.18013],[18.21608,59.18006],[18.21623,59.18007],[18.21632,59.18004],[18.21642,59.17996],[18.21653,59.17985],[18.21673,59.17972],[18.217,59.17959],[18.21714,59.1795],[18.21734,59.17935],[18.21743,59.17927],[18.2176,59.1793],[18.2181,59.1794],[18.21903,59.17916],[18.22066,59.17853],[18.22023,59.1768],[18.22214,59.17699],[18.22194,59.17578],[18.22194,59.17453],[18.22188,59.17403],[18.2221,59.17347],[18.22291,59.17299],[18.22366,59.17291],[18.22373,59.1729],[18.22444,59.17261],[18.22517,59.17258],[18.22593,59.17236],[18.22624,59.17162],[18.22664,59.17136],[18.22696,59.17115],[18.22793,59.17097],[18.22855,59.17101],[18.22907,59.17105],[18.23086,59.17133],[18.23159,59.17113],[18.23295,59.17113],[18.23465,59.17114],[18.23588,59.17115],[18.23705,59.17105],[18.2383,59.1712],[18.23831,59.17119],[18.23833,59.17115],[18.23854,59.17072],[18.23849,59.17035],[18.23842,59.17007],[18.23885,59.16998],[18.23952,59.16995],[18.24206,59.17008],[18.24207,59.17008],[18.24232,59.1701],[18.24381,59.16982],[18.244,59.16924],[18.24585,59.16876],[18.24695,59.1689],[18.24801,59.16852],[18.24863,59.16877],[18.24931,59.1685],[18.24996,59.16825],[18.25064,59.16817],[18.25166,59.16855],[18.25188,59.16824],[18.25174,59.16786],[18.2526,59.16744],[18.25272,59.16741],[18.25337,59.16722],[18.25402,59.16679],[18.25324,59.16654],[18.25292,59.16578],[18.25396,59.16547],[18.25576,59.16528],[18.25718,59.16524],[18.25777,59.16491],[18.25777,59.16491],[18.25777,59.16491],[18.26202,59.16573],[18.27832,59.1708]]]]},"properties":{"NVRID":"2001214","NAMN":"Tyresta","SKYDDSTYP":"Nationalpark","BESLUTSSTATUS":"Gällande","LAN":"Stockholms Län","KOMMUN":"Haninge, Tyresö","IUCNKATEGORI":"II, Nationalpark (National Park)","FORVALTARE":"Stiftelsen Tyrestaskogen","AREA_HA":1962.19,"LAND_HA":1874.61,"VATTEN_HA":87.58,"SKOG_HA":966.08,"URSPR_BESLUTSDATUM":"1993-05-27"}},{"type":"Feature","geometry":{"type":"MultiPolygon","coordinates":[[[[18.76268,59.61493],[18.76268,59.61493],[18.77079,59.61491],[18.77436,59.6193],[18.77182,59.61932],[18.77088,59.62142],[18.77081,59.62159],[18.7739,59.62373],[18.77827,59.62676],[18.77076,59.63127],[18.75698,59.63283],[18.75374,59.62975],[18.75344,59.6294],[18.7561,59.62596],[18.75449,59.62467],[18.75445,59.62292],[18.75201,59.62195],[18.75203,59.62185],[18.75255,59.61932],[18.75755,59.61822],[18.76268,59.61493]]]]},"properties":{"NVRID":"2001213","NAMN":"Ängsö","SKYDDSTYP":"Nationalpark","BESLUTSSTATUS":"Gällande","LAN":"Stockholms Län","KOMMUN":"Norrtälje","IUCNKATEGORI":"IV, Habitat/Artskyddsområde (Habitat/Species Management Area)","FORVALTARE":"Länsstyrelsen i Stockholms län","AREA_HA":194.87,"LAND_HA":80.8,"VATTEN_HA":114.07,"SKOG_HA":62.72,"URSPR_BESLUTSDATUM":"1909-05-24"}}]}